{
"type": "FeatureCollection",
"name": "gaemi_rainfall",
"crs": { "type": "name", "properties": { "name": "urn:ogc:def:crs:EPSG::3826" } },
"features": [
{ "type": "Feature", "properties": { "StationId": "81T1C0", "StationName": "明利國小", "CountyName": "花蓮縣", "TownName": "萬榮鄉", "StationLatitude": 23.706388, "StationLongitude": 121.4125, "StationAltitude": 160.0, "DateTime": "2024-07-25 14:00:00", "Past1hr": 5.0, "Past10Min": 0.5, "Past3hr": 5.5, "Past6hr": 8.5, "Past12hr": 22.0, "Past24hr": 56.5, "NOW": 26.0, "Past2days": 92.5, "Past3days": 119.5, "easting": 292063.3257466185, "northing": 2622567.9331536666 }, "geometry": { "type": "Point", "coordinates": [ 292063.325746618502308, 2622567.933153666555882 ] } },
{ "type": "Feature", "properties": { "StationId": "81T1B0", "StationName": "和仁車站", "CountyName": "花蓮縣", "TownName": "秀林鄉", "StationLatitude": 24.236166, "StationLongitude": 121.7089, "StationAltitude": 40.0, "DateTime": "2024-07-25 14:00:00", "Past1hr": 1.5, "Past10Min": 0.5, "Past3hr": 6.0, "Past6hr": 23.0, "Past12hr": 112.5, "Past24hr": 455.5, "NOW": 121.0, "Past2days": 552.5, "Past3days": 588.0, "easting": 321993.61435387848, "northing": 2681361.07083571 }, "geometry": { "type": "Point", "coordinates": [ 321993.614353878481779, 2681361.0708357100375 ] } },
{ "type": "Feature", "properties": { "StationId": "81T1A0", "StationName": "崇德國小", "CountyName": "花蓮縣", "TownName": "秀林鄉", "StationLatitude": 24.161554, "StationLongitude": 121.65304, "StationAltitude": 20.0, "DateTime": "2024-07-25 14:00:00", "Past1hr": 1.5, "Past10Min": 0.0, "Past3hr": 9.0, "Past6hr": 53.5, "Past12hr": 138.5, "Past24hr": 392.0, "NOW": 143.0, "Past2days": 468.5, "Past3days": 490.5, "easting": 316359.08976136916, "northing": 2673069.7515033144 }, "geometry": { "type": "Point", "coordinates": [ 316359.08976136916317, 2673069.751503314357251 ] } },
{ "type": "Feature", "properties": { "StationId": "81T770", "StationName": "大豐", "CountyName": "花蓮縣", "TownName": "光復鄉", "StationLatitude": 23.607222, "StationLongitude": 121.376114, "StationAltitude": 230.0, "DateTime": "2024-07-25 14:00:00", "Past1hr": 4.5, "Past10Min": 0.5, "Past3hr": 8.5, "Past6hr": 15.0, "Past12hr": 29.0, "Past24hr": 61.0, "NOW": 30.5, "Past2days": 98.0, "Past3days": 137.0, "easting": 288381.87278224673, "northing": 2611575.6427646228 }, "geometry": { "type": "Point", "coordinates": [ 288381.87278224673355, 2611575.642764622811228 ] } },
{ "type": "Feature", "properties": { "StationId": "81T990", "StationName": "高山部落", "CountyName": "花蓮縣", "TownName": "豐濱鄉", "StationLatitude": 23.691944, "StationLongitude": 121.549446, "StationAltitude": 20.0, "DateTime": "2024-07-25 14:00:00", "Past1hr": 3.0, "Past10Min": 0.5, "Past3hr": 5.5, "Past6hr": 12.5, "Past12hr": 34.0, "Past24hr": 161.5, "NOW": 36.5, "Past2days": 229.5, "Past3days": 281.0, "easting": 306034.36313898879, "northing": 2621015.4467864898 }, "geometry": { "type": "Point", "coordinates": [ 306034.363138988788705, 2621015.446786489803344 ] } },
{ "type": "Feature", "properties": { "StationId": "C0UB00", "StationName": "淡大蘭陽校園", "CountyName": "宜蘭縣", "TownName": "礁溪鄉", "StationLatitude": 24.823238, "StationLongitude": 121.730385, "StationAltitude": 379.0, "DateTime": "2024-07-25 14:00:00", "Past1hr": 3.0, "Past10Min": 0.5, "Past3hr": 12.5, "Past6hr": 33.0, "Past12hr": 60.5, "Past24hr": 197.0, "NOW": 72.5, "Past2days": 265.0, "Past3days": 344.5, "easting": 323831.48868998088, "northing": 2746396.8865060359 }, "geometry": { "type": "Point", "coordinates": [ 323831.488689980877098, 2746396.886506035923958 ] } },
{ "type": "Feature", "properties": { "StationId": "C0UA80", "StationName": "大溪漁港", "CountyName": "宜蘭縣", "TownName": "頭城鎮", "StationLatitude": 24.941803, "StationLongitude": 121.902954, "StationAltitude": 10.0, "DateTime": "2024-07-25 14:00:00", "Past1hr": 0.5, "Past10Min": 0.0, "Past3hr": 1.0, "Past6hr": 4.0, "Past12hr": 17.0, "Past24hr": 76.0, "NOW": 20.5, "Past2days": 127.5, "Past3days": 165.5, "easting": 341189.50698739022, "northing": 2759634.6119748186 }, "geometry": { "type": "Point", "coordinates": [ 341189.506987390224822, 2759634.611974818632007 ] } },
{ "type": "Feature", "properties": { "StationId": "C0UA90", "StationName": "石城", "CountyName": "宜蘭縣", "TownName": "頭城鎮", "StationLatitude": 24.980444, "StationLongitude": 121.95122, "StationAltitude": 5.0, "DateTime": "2024-07-25 14:00:00", "Past1hr": 3.0, "Past10Min": 0.0, "Past3hr": 5.5, "Past6hr": 10.0, "Past12hr": 36.0, "Past24hr": 126.0, "NOW": 39.0, "Past2days": 180.0, "Past3days": 204.0, "easting": 346034.19241237798, "northing": 2763948.1837805538 }, "geometry": { "type": "Point", "coordinates": [ 346034.192412377975415, 2763948.183780553750694 ] } },
{ "type": "Feature", "properties": { "StationId": "C0U880", "StationName": "北關", "CountyName": "宜蘭縣", "TownName": "頭城鎮", "StationLatitude": 24.907223, "StationLongitude": 121.87343, "StationAltitude": 2.0, "DateTime": "2024-07-25 14:00:00", "Past1hr": 1.0, "Past10Min": 0.0, "Past3hr": 4.0, "Past6hr": 11.5, "Past12hr": 37.5, "Past24hr": 119.0, "NOW": 41.0, "Past2days": 176.5, "Past3days": 224.0, "easting": 338232.32931267167, "northing": 2755784.7246221188 }, "geometry": { "type": "Point", "coordinates": [ 338232.329312671674415, 2755784.72462211875245 ] } },
{ "type": "Feature", "properties": { "StationId": "C0UB20", "StationName": "壯圍", "CountyName": "宜蘭縣", "TownName": "壯圍鄉", "StationLatitude": 24.735922, "StationLongitude": 121.81625, "StationAltitude": 30.0, "DateTime": "2024-07-25 14:00:00", "Past1hr": 0.5, "Past10Min": 0.0, "Past3hr": 3.5, "Past6hr": 5.0, "Past12hr": 12.5, "Past24hr": 114.0, "NOW": 18.0, "Past2days": 171.5, "Past3days": 238.5, "easting": 332569.32959571364, "northing": 2736774.439811354 }, "geometry": { "type": "Point", "coordinates": [ 332569.329595713643357, 2736774.439811354037374 ] } },
{ "type": "Feature", "properties": { "StationId": "C1U930", "StationName": "粉鳥林", "CountyName": "宜蘭縣", "TownName": "蘇澳鎮", "StationLatitude": 24.49709, "StationLongitude": 121.84248, "StationAltitude": 5.0, "DateTime": "2024-07-25 14:00:00", "Past1hr": 0.5, "Past10Min": 0.0, "Past3hr": 3.5, "Past6hr": 21.0, "Past12hr": 82.5, "Past24hr": 339.0, "NOW": 135.5, "Past2days": 449.0, "Past3days": 485.5, "easting": 335384.83742931526, "northing": 2710336.5236448827 }, "geometry": { "type": "Point", "coordinates": [ 335384.837429315259214, 2710336.523644882719964 ] } },
{ "type": "Feature", "properties": { "StationId": "467080", "StationName": "宜蘭", "CountyName": "宜蘭縣", "TownName": "宜蘭市", "StationLatitude": 24.763975, "StationLongitude": 121.75653, "StationAltitude": 7.4, "DateTime": "2024-07-25 14:00:00", "Past1hr": 0.5, "Past10Min": 0.0, "Past3hr": 14.0, "Past6hr": 18.0, "Past12hr": 39.5, "Past24hr": 169.5, "NOW": 49.5, "Past2days": 238.5, "Past3days": 305.0, "easting": 326510.82212419424, "northing": 2739847.0158702643 }, "geometry": { "type": "Point", "coordinates": [ 326510.822124194237404, 2739847.015870264265686 ] } },
{ "type": "Feature", "properties": { "StationId": "466990", "StationName": "花蓮", "CountyName": "花蓮縣", "TownName": "花蓮市", "StationLatitude": 23.975128, "StationLongitude": 121.61327, "StationAltitude": 16.1, "DateTime": "2024-07-25 14:00:00", "Past1hr": 2.0, "Past10Min": 1.0, "Past3hr": 6.0, "Past6hr": 17.0, "Past12hr": 51.5, "Past24hr": 299.5, "NOW": 53.0, "Past2days": 378.5, "Past3days": 417.0, "easting": 312407.86058124393, "northing": 2652404.3450242844 }, "geometry": { "type": "Point", "coordinates": [ 312407.860581243934575, 2652404.345024284441024 ] } },
{ "type": "Feature", "properties": { "StationId": "C0U520", "StationName": "雙連埤", "CountyName": "宜蘭縣", "TownName": "員山鄉", "StationLatitude": 24.753033, "StationLongitude": 121.641304, "StationAltitude": 517.0, "DateTime": "2024-07-25 14:00:00", "Past1hr": 0.5, "Past10Min": 0.0, "Past3hr": 1.0, "Past6hr": 4.5, "Past12hr": 35.5, "Past24hr": 157.5, "NOW": 50.0, "Past2days": 231.5, "Past3days": 329.0, "easting": 314862.9031370352, "northing": 2738575.5005051456 }, "geometry": { "type": "Point", "coordinates": [ 314862.903137035202235, 2738575.500505145639181 ] } },
{ "type": "Feature", "properties": { "StationId": "C0U600", "StationName": "礁溪", "CountyName": "宜蘭縣", "TownName": "礁溪鄉", "StationLatitude": 24.81754, "StationLongitude": 121.76561, "StationAltitude": 10.0, "DateTime": "2024-07-25 14:00:00", "Past1hr": 3.5, "Past10Min": 0.0, "Past3hr": 16.0, "Past6hr": 43.5, "Past12hr": 68.0, "Past24hr": 185.5, "NOW": 76.0, "Past2days": 230.0, "Past3days": 284.0, "easting": 327395.9083778034, "northing": 2745785.2616243893 }, "geometry": { "type": "Point", "coordinates": [ 327395.908377803396434, 2745785.261624389328063 ] } },
{ "type": "Feature", "properties": { "StationId": "C0U710", "StationName": "太平山", "CountyName": "宜蘭縣", "TownName": "大同鄉", "StationLatitude": 24.505486, "StationLongitude": 121.52566, "StationAltitude": 1942.0, "DateTime": "2024-07-25 14:00:00", "Past1hr": 0.5, "Past10Min": 0.0, "Past3hr": 4.5, "Past6hr": 20.5, "Past12hr": 72.0, "Past24hr": 535.5, "NOW": 136.5, "Past2days": 901.0, "Past3days": 950.5, "easting": 303271.00951801694, "northing": 2711107.470733027 }, "geometry": { "type": "Point", "coordinates": [ 303271.009518016944639, 2711107.470733026973903 ] } },
{ "type": "Feature", "properties": { "StationId": "C1T810", "StationName": "慈恩", "CountyName": "花蓮縣", "TownName": "秀林鄉", "StationLatitude": 24.192043, "StationLongitude": 121.38839, "StationAltitude": 2049.0, "DateTime": "2024-07-25 14:00:00", "Past1hr": 7.5, "Past10Min": 2.5, "Past3hr": 31.5, "Past6hr": 65.5, "Past12hr": 183.5, "Past24hr": 342.0, "NOW": 196.0, "Past2days": 419.5, "Past3days": 445.0, "easting": 289456.76124365418, "northing": 2676346.4090491259 }, "geometry": { "type": "Point", "coordinates": [ 289456.761243654182181, 2676346.409049125853926 ] } },
{ "type": "Feature", "properties": { "StationId": "C1T800", "StationName": "洛韶", "CountyName": "花蓮縣", "TownName": "秀林鄉", "StationLatitude": 24.204557, "StationLongitude": 121.45396, "StationAltitude": 1260.0, "DateTime": "2024-07-25 14:00:00", "Past1hr": 2.5, "Past10Min": 1.0, "Past3hr": 11.5, "Past6hr": 30.5, "Past12hr": 108.5, "Past24hr": 248.0, "NOW": 116.0, "Past2days": 346.5, "Past3days": 364.5, "easting": 296113.64018383616, "northing": 2677752.4307314199 }, "geometry": { "type": "Point", "coordinates": [ 296113.640183836163487, 2677752.430731419939548 ] } },
{ "type": "Feature", "properties": { "StationId": "C1T980", "StationName": "龍澗", "CountyName": "花蓮縣", "TownName": "秀林鄉", "StationLatitude": 24.023289, "StationLongitude": 121.41133, "StationAltitude": 1306.0, "DateTime": "2024-07-25 14:00:00", "Past1hr": 3.5, "Past10Min": 1.0, "Past3hr": 13.5, "Past6hr": 33.0, "Past12hr": 128.5, "Past24hr": 236.0, "NOW": 138.0, "Past2days": 288.0, "Past3days": 307.5, "easting": 291842.07954021066, "northing": 2657663.4647522522 }, "geometry": { "type": "Point", "coordinates": [ 291842.079540210659616, 2657663.464752252213657 ] } },
{ "type": "Feature", "properties": { "StationId": "C1T920", "StationName": "中興", "CountyName": "花蓮縣", "TownName": "壽豐鄉", "StationLatitude": 23.769503, "StationLongitude": 121.49865, "StationAltitude": 68.0, "DateTime": "2024-07-25 14:00:00", "Past1hr": 2.5, "Past10Min": 0.0, "Past3hr": 4.5, "Past6hr": 11.0, "Past12hr": 33.5, "Past24hr": 177.0, "NOW": 38.0, "Past2days": 237.0, "Past3days": 274.0, "easting": 300823.83673971228, "northing": 2629585.7660462987 }, "geometry": { "type": "Point", "coordinates": [ 300823.836739712278359, 2629585.766046298667789 ] } },
{ "type": "Feature", "properties": { "StationId": "C0T900", "StationName": "西林", "CountyName": "花蓮縣", "TownName": "萬榮鄉", "StationLatitude": 23.8119, "StationLongitude": 121.44146, "StationAltitude": 160.0, "DateTime": "2024-07-25 14:00:00", "Past1hr": 3.0, "Past10Min": 0.5, "Past3hr": 5.0, "Past6hr": 9.0, "Past12hr": 30.0, "Past24hr": 75.0, "NOW": 30.5, "Past2days": 113.5, "Past3days": 141.0, "easting": 294980.19057868194, "northing": 2634261.8043146008 }, "geometry": { "type": "Point", "coordinates": [ 294980.190578681940679, 2634261.80431460076943 ] } },
{ "type": "Feature", "properties": { "StationId": "C1T940", "StationName": "大觀", "CountyName": "花蓮縣", "TownName": "萬榮鄉", "StationLatitude": 23.714207, "StationLongitude": 121.37313, "StationAltitude": 539.0, "DateTime": "2024-07-25 14:00:00", "Past1hr": 5.5, "Past10Min": 1.0, "Past3hr": 10.0, "Past6hr": 16.5, "Past12hr": 36.5, "Past24hr": 79.0, "NOW": 41.5, "Past2days": 111.0, "Past3days": 144.0, "easting": 288046.39165841602, "northing": 2623422.7787364204 }, "geometry": { "type": "Point", "coordinates": [ 288046.39165841601789, 2623422.778736420441419 ] } },
{ "type": "Feature", "properties": { "StationId": "C1T950", "StationName": "太安", "CountyName": "花蓮縣", "TownName": "萬榮鄉", "StationLatitude": 23.66672, "StationLongitude": 121.370125, "StationAltitude": 1050.0, "DateTime": "2024-07-25 14:00:00", "Past1hr": 4.5, "Past10Min": 0.5, "Past3hr": 11.0, "Past6hr": 18.0, "Past12hr": 35.0, "Past24hr": 84.5, "NOW": 37.0, "Past2days": 123.5, "Past3days": 163.5, "easting": 287753.63238373981, "northing": 2618163.066235424 }, "geometry": { "type": "Point", "coordinates": [ 287753.632383739808574, 2618163.066235424019396 ] } },
{ "type": "Feature", "properties": { "StationId": "C1T970", "StationName": "大農", "CountyName": "花蓮縣", "TownName": "光復鄉", "StationLatitude": 23.615232, "StationLongitude": 121.41333, "StationAltitude": 183.0, "DateTime": "2024-07-25 14:00:00", "Past1hr": 3.0, "Past10Min": 0.0, "Past3hr": 6.0, "Past6hr": 11.5, "Past12hr": 24.0, "Past24hr": 54.0, "NOW": 27.5, "Past2days": 96.0, "Past3days": 136.0, "easting": 292177.19001027598, "northing": 2612473.1765423082 }, "geometry": { "type": "Point", "coordinates": [ 292177.190010275982786, 2612473.176542308181524 ] } },
{ "type": "Feature", "properties": { "StationId": "C1T830", "StationName": "布洛灣", "CountyName": "花蓮縣", "TownName": "秀林鄉", "StationLatitude": 24.171843, "StationLongitude": 121.571266, "StationAltitude": 675.0, "DateTime": "2024-07-25 14:00:00", "Past1hr": 2.5, "Past10Min": 0.5, "Past3hr": 16.5, "Past6hr": 54.0, "Past12hr": 163.5, "Past24hr": 402.0, "NOW": 171.0, "Past2days": 523.0, "Past3days": 545.0, "easting": 308044.72173838736, "northing": 2674172.9508724771 }, "geometry": { "type": "Point", "coordinates": [ 308044.721738387364894, 2674172.950872477144003 ] } },
{ "type": "Feature", "properties": { "StationId": "C0T820", "StationName": "天祥", "CountyName": "花蓮縣", "TownName": "秀林鄉", "StationLatitude": 24.179598, "StationLongitude": 121.495636, "StationAltitude": 550.0, "DateTime": "2024-07-25 14:00:00", "Past1hr": 2.0, "Past10Min": 0.5, "Past3hr": 9.5, "Past6hr": 32.5, "Past12hr": 112.0, "Past24hr": 263.5, "NOW": 118.5, "Past2days": 359.5, "Past3days": 373.0, "easting": 300356.99052474386, "northing": 2675002.5381972599 }, "geometry": { "type": "Point", "coordinates": [ 300356.990524743858259, 2675002.538197259884328 ] } },
{ "type": "Feature", "properties": { "StationId": "C0T870", "StationName": "鯉魚潭", "CountyName": "花蓮縣", "TownName": "壽豐鄉", "StationLatitude": 23.935638, "StationLongitude": 121.50894, "StationAltitude": 135.0, "DateTime": "2024-07-25 14:00:00", "Past1hr": 1.5, "Past10Min": 0.5, "Past3hr": 3.5, "Past6hr": 9.0, "Past12hr": 48.5, "Past24hr": 126.0, "NOW": 52.5, "Past2days": 181.0, "Past3days": 203.0, "easting": 301806.54987639585, "northing": 2647988.5989142195 }, "geometry": { "type": "Point", "coordinates": [ 301806.549876395845786, 2647988.598914219532162 ] } },
{ "type": "Feature", "properties": { "StationId": "C0T960", "StationName": "光復", "CountyName": "花蓮縣", "TownName": "光復鄉", "StationLatitude": 23.660694, "StationLongitude": 121.424965, "StationAltitude": 120.0, "DateTime": "2024-07-25 14:00:00", "Past1hr": 4.0, "Past10Min": 0.5, "Past3hr": 6.0, "Past6hr": 11.0, "Past12hr": 24.5, "Past24hr": 59.0, "NOW": 27.0, "Past2days": 102.5, "Past3days": 137.0, "easting": 293349.49531018565, "northing": 2617511.3009114983 }, "geometry": { "type": "Point", "coordinates": [ 293349.495310185651761, 2617511.300911498256028 ] } },
{ "type": "Feature", "properties": { "StationId": "C1T990", "StationName": "高寮", "CountyName": "花蓮縣", "TownName": "玉里鎮", "StationLatitude": 23.39424, "StationLongitude": 121.35681, "StationAltitude": 128.0, "DateTime": "2024-07-25 14:00:00", "Past1hr": 2.0, "Past10Min": 0.5, "Past3hr": 9.0, "Past6hr": 19.0, "Past12hr": 27.5, "Past24hr": 39.0, "NOW": 32.5, "Past2days": 70.0, "Past3days": 101.0, "easting": 286470.48185823025, "northing": 2587984.657849492 }, "geometry": { "type": "Point", "coordinates": [ 286470.481858230254147, 2587984.657849492039531 ] } },
{ "type": "Feature", "properties": { "StationId": "C0Z020", "StationName": "明里", "CountyName": "花蓮縣", "TownName": "富里鄉", "StationLatitude": 23.208717, "StationLongitude": 121.262344, "StationAltitude": 211.0, "DateTime": "2024-07-25 14:00:00", "Past1hr": 3.5, "Past10Min": 0.5, "Past3hr": 13.5, "Past6hr": 41.5, "Past12hr": 66.0, "Past24hr": 77.0, "NOW": 75.5, "Past2days": 86.5, "Past3days": 108.5, "easting": 276852.02114451031, "northing": 2567419.5019356124 }, "geometry": { "type": "Point", "coordinates": [ 276852.021144510305021, 2567419.501935612410307 ] } },
{ "type": "Feature", "properties": { "StationId": "C1Z030", "StationName": "紅葉", "CountyName": "花蓮縣", "TownName": "萬榮鄉", "StationLatitude": 23.493118, "StationLongitude": 121.338806, "StationAltitude": 218.0, "DateTime": "2024-07-25 14:00:00", "Past1hr": 3.5, "Past10Min": 0.0, "Past3hr": 9.0, "Past6hr": 16.0, "Past12hr": 28.5, "Past24hr": 36.0, "NOW": 31.0, "Past2days": 63.5, "Past3days": 95.0, "easting": 284604.47020272491, "northing": 2598930.0227953056 }, "geometry": { "type": "Point", "coordinates": [ 284604.470202724914998, 2598930.022795305587351 ] } },
{ "type": "Feature", "properties": { "StationId": "C1Z040", "StationName": "立山", "CountyName": "花蓮縣", "TownName": "卓溪鄉", "StationLatitude": 23.443356, "StationLongitude": 121.32738, "StationAltitude": 434.0, "DateTime": "2024-07-25 14:00:00", "Past1hr": 3.0, "Past10Min": 0.0, "Past3hr": 7.5, "Past6hr": 14.5, "Past12hr": 27.0, "Past24hr": 35.0, "NOW": 30.5, "Past2days": 61.0, "Past3days": 90.5, "easting": 283449.98894440167, "northing": 2593416.6358459392 }, "geometry": { "type": "Point", "coordinates": [ 283449.988944401673507, 2593416.635845939163119 ] } },
{ "type": "Feature", "properties": { "StationId": "C0T9M0", "StationName": "靜浦", "CountyName": "花蓮縣", "TownName": "豐濱鄉", "StationLatitude": 23.455168, "StationLongitude": 121.495026, "StationAltitude": 92.0, "DateTime": "2024-07-25 14:00:00", "Past1hr": 2.5, "Past10Min": 0.0, "Past3hr": 8.5, "Past6hr": 20.5, "Past12hr": 35.0, "Past24hr": 65.5, "NOW": 38.0, "Past2days": 95.5, "Past3days": 140.0, "easting": 300574.93316675117, "northing": 2594773.6313769883 }, "geometry": { "type": "Point", "coordinates": [ 300574.933166751172394, 2594773.631376988254488 ] } },
{ "type": "Feature", "properties": { "StationId": "C0Z050", "StationName": "佳心", "CountyName": "花蓮縣", "TownName": "卓溪鄉", "StationLatitude": 23.345667, "StationLongitude": 121.213165, "StationAltitude": 830.0, "DateTime": "2024-07-25 14:00:00", "Past1hr": 4.5, "Past10Min": 0.5, "Past3hr": 16.0, "Past6hr": 30.5, "Past12hr": 49.5, "Past24hr": 64.0, "NOW": 59.0, "Past2days": 79.0, "Past3days": 98.5, "easting": 271796.02692905499, "northing": 2582576.7514814893 }, "geometry": { "type": "Point", "coordinates": [ 271796.026929054991342, 2582576.751481489278376 ] } },
{ "type": "Feature", "properties": { "StationId": "C0Z061", "StationName": "玉里", "CountyName": "花蓮縣", "TownName": "玉里鎮", "StationLatitude": 23.3215, "StationLongitude": 121.33965, "StationAltitude": 174.0, "DateTime": "2024-07-25 14:00:00", "Past1hr": 3.0, "Past10Min": 0.5, "Past3hr": 10.0, "Past6hr": 21.5, "Past12hr": 30.5, "Past24hr": 41.0, "NOW": 37.5, "Past2days": 68.5, "Past3days": 94.5, "easting": 284735.43119819841, "northing": 2579925.2477064384 }, "geometry": { "type": "Point", "coordinates": [ 284735.431198198406491, 2579925.247706438414752 ] } },
{ "type": "Feature", "properties": { "StationId": "C0T790", "StationName": "大禹嶺", "CountyName": "花蓮縣", "TownName": "秀林鄉", "StationLatitude": 24.186117, "StationLongitude": 121.316086, "StationAltitude": 2830.0, "DateTime": "2024-07-25 14:00:00", "Past1hr": 5.5, "Past10Min": 1.0, "Past3hr": 27.5, "Past6hr": 67.5, "Past12hr": 174.5, "Past24hr": 329.0, "NOW": 183.0, "Past2days": 417.5, "Past3days": 439.0, "easting": 282112.78476937942, "northing": 2675671.5928358003 }, "geometry": { "type": "Point", "coordinates": [ 282112.784769379417412, 2675671.59283580025658 ] } },
{ "type": "Feature", "properties": { "StationId": "C0T9A0", "StationName": "月眉山", "CountyName": "花蓮縣", "TownName": "壽豐鄉", "StationLatitude": 23.809929, "StationLongitude": 121.539825, "StationAltitude": 498.0, "DateTime": "2024-07-25 14:00:00", "Past1hr": 3.0, "Past10Min": 0.5, "Past3hr": 5.5, "Past6hr": 14.0, "Past12hr": 35.0, "Past24hr": 189.5, "NOW": 37.0, "Past2days": 266.0, "Past3days": 303.5, "easting": 305003.57607284182, "northing": 2634078.1725146663 }, "geometry": { "type": "Point", "coordinates": [ 305003.576072841824498, 2634078.17251466633752 ] } },
{ "type": "Feature", "properties": { "StationId": "C0T9B0", "StationName": "水源", "CountyName": "花蓮縣", "TownName": "秀林鄉", "StationLatitude": 23.991861, "StationLongitude": 121.53717, "StationAltitude": 558.0, "DateTime": "2024-07-25 14:00:00", "Past1hr": 1.5, "Past10Min": 0.0, "Past3hr": 5.0, "Past6hr": 15.5, "Past12hr": 60.5, "Past24hr": 177.0, "NOW": 65.5, "Past2days": 234.5, "Past3days": 263.0, "easting": 304656.51150049054, "northing": 2654225.9344325159 }, "geometry": { "type": "Point", "coordinates": [ 304656.51150049053831, 2654225.934432515874505 ] } },
{ "type": "Feature", "properties": { "StationId": "C0U750", "StationName": "龜山島", "CountyName": "宜蘭縣", "TownName": "頭城鎮", "StationLatitude": 24.841667, "StationLongitude": 121.95313, "StationAltitude": 398.0, "DateTime": "2024-07-25 14:00:00", "Past1hr": 0.5, "Past10Min": 0.0, "Past3hr": 2.0, "Past6hr": 6.5, "Past12hr": 22.5, "Past24hr": 34.5, "NOW": 23.5, "Past2days": 41.5, "Past3days": 62.0, "easting": 346334.7591779051, "northing": 2748577.1473693084 }, "geometry": { "type": "Point", "coordinates": [ 346334.759177905099932, 2748577.147369308397174 ] } },
{ "type": "Feature", "properties": { "StationId": "C0T9G0", "StationName": "鳳林山", "CountyName": "花蓮縣", "TownName": "鳳林鎮", "StationLatitude": 23.73527, "StationLongitude": 121.42013, "StationAltitude": 605.0, "DateTime": "2024-07-25 14:00:00", "Past1hr": 4.0, "Past10Min": 0.5, "Past3hr": 7.0, "Past6hr": 10.0, "Past12hr": 28.5, "Past24hr": 80.5, "NOW": 33.0, "Past2days": 122.0, "Past3days": 152.5, "easting": 292831.94404698996, "northing": 2625768.7477817601 }, "geometry": { "type": "Point", "coordinates": [ 292831.944046989956405, 2625768.747781760059297 ] } },
{ "type": "Feature", "properties": { "StationId": "C0T9E0", "StationName": "大坑", "CountyName": "花蓮縣", "TownName": "壽豐鄉", "StationLatitude": 23.880629, "StationLongitude": 121.58198, "StationAltitude": 415.0, "DateTime": "2024-07-25 14:00:00", "Past1hr": 2.0, "Past10Min": 0.5, "Past3hr": 7.0, "Past6hr": 23.5, "Past12hr": 52.5, "Past24hr": 251.5, "NOW": 53.0, "Past2days": 339.0, "Past3days": 382.0, "easting": 309266.75514130143, "northing": 2641925.087900165 }, "geometry": { "type": "Point", "coordinates": [ 309266.75514130142983, 2641925.087900165002793 ] } },
{ "type": "Feature", "properties": { "StationId": "C0T9H0", "StationName": "加路蘭山", "CountyName": "花蓮縣", "TownName": "豐濱鄉", "StationLatitude": 23.682947, "StationLongitude": 121.5274, "StationAltitude": 725.0, "DateTime": "2024-07-25 14:00:00", "Past1hr": 3.5, "Past10Min": 0.5, "Past3hr": 5.5, "Past6hr": 11.5, "Past12hr": 33.0, "Past24hr": 190.5, "NOW": 38.0, "Past2days": 262.0, "Past3days": 313.5, "easting": 303789.67797414807, "northing": 2620010.5762694017 }, "geometry": { "type": "Point", "coordinates": [ 303789.677974148071371, 2620010.57626940170303 ] } },
{ "type": "Feature", "properties": { "StationId": "C0T9I0", "StationName": "豐濱", "CountyName": "花蓮縣", "TownName": "豐濱鄉", "StationLatitude": 23.583897, "StationLongitude": 121.51481, "StationAltitude": 152.0, "DateTime": "2024-07-25 14:00:00", "Past1hr": 3.5, "Past10Min": 0.5, "Past3hr": 6.5, "Past6hr": 13.0, "Past12hr": 29.0, "Past24hr": 151.5, "NOW": 32.0, "Past2days": 203.5, "Past3days": 246.5, "easting": 302545.1087232522, "northing": 2609036.5992129743 }, "geometry": { "type": "Point", "coordinates": [ 302545.108723252196796, 2609036.599212974309921 ] } },
{ "type": "Feature", "properties": { "StationId": "C0T9F0", "StationName": "水璉", "CountyName": "花蓮縣", "TownName": "壽豐鄉", "StationLatitude": 23.79713, "StationLongitude": 121.54251, "StationAltitude": 251.0, "DateTime": "2024-07-25 14:00:00", "Past1hr": 3.5, "Past10Min": 0.5, "Past3hr": 6.0, "Past6hr": 14.5, "Past12hr": 40.0, "Past24hr": 307.0, "NOW": 43.5, "Past2days": 384.5, "Past3days": 428.5, "easting": 305282.57731007307, "northing": 2632661.7561072707 }, "geometry": { "type": "Point", "coordinates": [ 305282.577310073073022, 2632661.756107270717621 ] } },
{ "type": "Feature", "properties": { "StationId": "C0T9D0", "StationName": "和中", "CountyName": "花蓮縣", "TownName": "秀林鄉", "StationLatitude": 24.266762, "StationLongitude": 121.74103, "StationAltitude": 7.0, "DateTime": "2024-07-25 14:00:00", "Past1hr": 1.5, "Past10Min": 0.0, "Past3hr": 7.5, "Past6hr": 26.0, "Past12hr": 123.0, "Past24hr": 399.0, "NOW": 136.5, "Past2days": 498.0, "Past3days": 549.5, "easting": 325238.75021264638, "northing": 2684766.7408996611 }, "geometry": { "type": "Point", "coordinates": [ 325238.750212646380533, 2684766.740899661090225 ] } },
{ "type": "Feature", "properties": { "StationId": "C0U760", "StationName": "東澳", "CountyName": "宜蘭縣", "TownName": "南澳鄉", "StationLatitude": 24.521957, "StationLongitude": 121.833176, "StationAltitude": 22.0, "DateTime": "2024-07-25 14:00:00", "Past1hr": 1.0, "Past10Min": 0.5, "Past3hr": 5.0, "Past6hr": 25.5, "Past12hr": 95.0, "Past24hr": 474.0, "NOW": 145.0, "Past2days": 624.5, "Past3days": 696.0, "easting": 334425.22176514089, "northing": 2713085.1314773969 }, "geometry": { "type": "Point", "coordinates": [ 334425.221765140886419, 2713085.131477396935225 ] } },
{ "type": "Feature", "properties": { "StationId": "C1U850", "StationName": "觀音海岸", "CountyName": "宜蘭縣", "TownName": "南澳鄉", "StationLatitude": 24.383194, "StationLongitude": 121.77856, "StationAltitude": 665.0, "DateTime": "2024-07-25 14:00:00", "Past1hr": 1.5, "Past10Min": 0.0, "Past3hr": 9.0, "Past6hr": 35.0, "Past12hr": 91.0, "Past24hr": 351.5, "NOW": 106.0, "Past2days": 494.0, "Past3days": 557.0, "easting": 328977.23812114919, "northing": 2697683.3631477319 }, "geometry": { "type": "Point", "coordinates": [ 328977.238121149188373, 2697683.363147731870413 ] } },
{ "type": "Feature", "properties": { "StationId": "C1U840", "StationName": "東澳嶺", "CountyName": "宜蘭縣", "TownName": "南澳鄉", "StationLatitude": 24.5378, "StationLongitude": 121.8485, "StationAltitude": 750.0, "DateTime": "2024-07-25 14:00:00", "Past1hr": 0.5, "Past10Min": 0.0, "Past3hr": 2.5, "Past6hr": 6.5, "Past12hr": 19.0, "Past24hr": 379.0, "NOW": 37.0, "Past2days": 497.5, "Past3days": 595.5, "easting": 335967.27781998756, "northing": 2714849.4065941665 }, "geometry": { "type": "Point", "coordinates": [ 335967.277819987561088, 2714849.406594166532159 ] } },
{ "type": "Feature", "properties": { "StationId": "C0Z080", "StationName": "富源", "CountyName": "花蓮縣", "TownName": "光復鄉", "StationLatitude": 23.587643, "StationLongitude": 121.37823, "StationAltitude": 298.0, "DateTime": "2024-07-25 14:00:00", "Past1hr": 3.5, "Past10Min": 0.0, "Past3hr": 7.0, "Past6hr": 13.5, "Past12hr": 26.0, "Past24hr": 53.5, "NOW": 28.5, "Past2days": 85.0, "Past3days": 117.5, "easting": 288603.53938416508, "northing": 2609407.9744692729 }, "geometry": { "type": "Point", "coordinates": [ 288603.539384165080264, 2609407.974469272885472 ] } },
{ "type": "Feature", "properties": { "StationId": "C1S850", "StationName": "豐南", "CountyName": "花蓮縣", "TownName": "富里鄉", "StationLatitude": 23.122139, "StationLongitude": 121.26239, "StationAltitude": 489.0, "DateTime": "2024-07-25 14:00:00", "Past1hr": 4.0, "Past10Min": 0.5, "Past3hr": 11.5, "Past6hr": 30.0, "Past12hr": 45.5, "Past24hr": 59.0, "NOW": 53.5, "Past2days": 72.0, "Past3days": 90.5, "easting": 276874.00153964659, "northing": 2557832.2037927927 }, "geometry": { "type": "Point", "coordinates": [ 276874.001539646589663, 2557832.203792792744935 ] } },
{ "type": "Feature", "properties": { "StationId": "C0Z100", "StationName": "東華", "CountyName": "花蓮縣", "TownName": "壽豐鄉", "StationLatitude": 23.89525, "StationLongitude": 121.549835, "StationAltitude": 36.0, "DateTime": "2024-07-25 14:00:00", "Past1hr": 1.0, "Past10Min": 0.5, "Past3hr": 2.5, "Past6hr": 6.0, "Past12hr": 21.5, "Past24hr": 122.0, "NOW": 22.0, "Past2days": 166.5, "Past3days": 183.5, "easting": 305986.86090940185, "northing": 2643531.2587625221 }, "geometry": { "type": "Point", "coordinates": [ 305986.860909401846584, 2643531.25876252213493 ] } },
{ "type": "Feature", "properties": { "StationId": "01T220", "StationName": "卓麓(4)", "CountyName": "花蓮縣", "TownName": "卓溪鄉", "StationLatitude": 23.295555, "StationLongitude": 121.266945, "StationAltitude": 207.0, "DateTime": "2024-07-25 14:00:00", "Past1hr": 2.0, "Past10Min": 0.0, "Past3hr": 11.0, "Past6hr": 26.0, "Past12hr": 37.0, "Past24hr": 48.0, "NOW": 46.0, "Past2days": 64.0, "Past3days": 84.0, "easting": 277305.26815299765, "northing": 2577036.5653555784 }, "geometry": { "type": "Point", "coordinates": [ 277305.268152997654397, 2577036.565355578437448 ] } },
{ "type": "Feature", "properties": { "StationId": "01T230", "StationName": "立山", "CountyName": "花蓮縣", "TownName": "卓溪鄉", "StationLatitude": 23.430079, "StationLongitude": 121.31263, "StationAltitude": 180.0, "DateTime": "2024-07-25 14:00:00", "Past1hr": 3.0, "Past10Min": 0.0, "Past3hr": 8.0, "Past6hr": 15.0, "Past12hr": 28.0, "Past24hr": 36.0, "NOW": 32.0, "Past2days": 59.0, "Past3days": 85.0, "easting": 281946.09087195375, "northing": 2591942.9891861947 }, "geometry": { "type": "Point", "coordinates": [ 281946.090871953754686, 2591942.989186194725335 ] } },
{ "type": "Feature", "properties": { "StationId": "01T500", "StationName": "北埔", "CountyName": "花蓮縣", "TownName": "新城鄉", "StationLatitude": 24.037079, "StationLongitude": 121.60446, "StationAltitude": 20.0, "DateTime": "2024-07-25 14:00:00", "Past1hr": 1.0, "Past10Min": 0.0, "Past3hr": 6.0, "Past6hr": 22.0, "Past12hr": 61.0, "Past24hr": 247.0, "NOW": 64.0, "Past2days": 325.0, "Past3days": 354.0, "easting": 311481.86139377637, "northing": 2659261.6324762781 }, "geometry": { "type": "Point", "coordinates": [ 311481.861393776373006, 2659261.632476278115064 ] } },
{ "type": "Feature", "properties": { "StationId": "01T560", "StationName": "西林", "CountyName": "花蓮縣", "TownName": "萬榮鄉", "StationLatitude": 23.819214, "StationLongitude": 121.43207, "StationAltitude": 200.0, "DateTime": "2024-07-25 14:00:00", "Past1hr": 2.0, "Past10Min": 0.0, "Past3hr": 4.0, "Past6hr": 8.0, "Past12hr": 33.0, "Past24hr": 83.0, "NOW": 34.0, "Past2days": 121.0, "Past3days": 148.0, "easting": 294020.96810558351, "northing": 2635068.86049086 }, "geometry": { "type": "Point", "coordinates": [ 294020.968105583509896, 2635068.860490859951824 ] } },
{ "type": "Feature", "properties": { "StationId": "01T670", "StationName": "新東礦", "CountyName": "花蓮縣", "TownName": "萬榮鄉", "StationLatitude": 23.81484, "StationLongitude": 121.403465, "StationAltitude": 1100.0, "DateTime": "2024-07-25 14:00:00", "Past1hr": 3.0, "Past10Min": 0.0, "Past3hr": 7.0, "Past6hr": 18.0, "Past12hr": 50.0, "Past24hr": 90.0, "NOW": 52.0, "Past2days": 130.0, "Past3days": 152.0, "easting": 291107.92334325321, "northing": 2634575.8737380402 }, "geometry": { "type": "Point", "coordinates": [ 291107.92334325320553, 2634575.873738040216267 ] } },
{ "type": "Feature", "properties": { "StationId": "01T720", "StationName": "明里", "CountyName": "花蓮縣", "TownName": "富里鄉", "StationLatitude": 23.202324, "StationLongitude": 121.25167, "StationAltitude": 210.0, "DateTime": "2024-07-25 14:00:00", "Past1hr": 2.0, "Past10Min": 0.0, "Past3hr": 13.0, "Past6hr": 43.0, "Past12hr": 70.0, "Past24hr": 82.0, "NOW": 80.0, "Past2days": 91.0, "Past3days": 114.0, "easting": 275760.71227422298, "northing": 2566709.6318319738 }, "geometry": { "type": "Point", "coordinates": [ 275760.712274222983979, 2566709.631831973791122 ] } },
{ "type": "Feature", "properties": { "StationId": "01T730", "StationName": "豐濱", "CountyName": "花蓮縣", "TownName": "豐濱鄉", "StationLatitude": 23.602442, "StationLongitude": 121.52049, "StationAltitude": 30.0, "DateTime": "2024-07-25 14:00:00", "Past1hr": 2.0, "Past10Min": 0.0, "Past3hr": 5.0, "Past6hr": 12.0, "Past12hr": 29.0, "Past24hr": 199.0, "NOW": 32.0, "Past2days": 252.0, "Past3days": 299.0, "easting": 303117.39267725527, "northing": 2611092.4504270363 }, "geometry": { "type": "Point", "coordinates": [ 303117.39267725526588, 2611092.450427036266774 ] } },
{ "type": "Feature", "properties": { "StationId": "01T9J0", "StationName": "六十石山", "CountyName": "花蓮縣", "TownName": "富里鄉", "StationLatitude": 23.217558, "StationLongitude": 121.32297, "StationAltitude": 730.0, "DateTime": "2024-07-25 14:00:00", "Past1hr": 2.0, "Past10Min": 0.0, "Past3hr": 10.0, "Past6hr": 31.0, "Past12hr": 50.0, "Past24hr": 61.0, "NOW": 56.0, "Past2days": 81.0, "Past3days": 126.0, "easting": 283055.21551534749, "northing": 2568411.0199465733 }, "geometry": { "type": "Point", "coordinates": [ 283055.21551534748869, 2568411.01994657330215 ] } },
{ "type": "Feature", "properties": { "StationId": "01T9L0", "StationName": "東富", "CountyName": "花蓮縣", "TownName": "光復鄉", "StationLatitude": 23.684835, "StationLongitude": 121.482086, "StationAltitude": 110.0, "DateTime": "2024-07-25 14:00:00", "Past1hr": 2.0, "Past10Min": 0.0, "Past3hr": 3.0, "Past6hr": 8.0, "Past12hr": 25.0, "Past24hr": 153.0, "NOW": 31.0, "Past2days": 211.0, "Past3days": 246.0, "easting": 299167.30548102327, "northing": 2620203.3090213151 }, "geometry": { "type": "Point", "coordinates": [ 299167.305481023271568, 2620203.309021315071732 ] } },
{ "type": "Feature", "properties": { "StationId": "01U070", "StationName": "留茂安", "CountyName": "宜蘭縣", "TownName": "大同鄉", "StationLatitude": 24.531773, "StationLongitude": 121.45123, "StationAltitude": 585.0, "DateTime": "2024-07-25 14:00:00", "Past1hr": 1.0, "Past10Min": 0.0, "Past3hr": 6.0, "Past6hr": 17.0, "Past12hr": 54.0, "Past24hr": 411.0, "NOW": 88.0, "Past2days": 637.0, "Past3days": 676.0, "easting": 295718.55777079187, "northing": 2713992.266542227 }, "geometry": { "type": "Point", "coordinates": [ 295718.557770791871008, 2713992.266542227007449 ] } },
{ "type": "Feature", "properties": { "StationId": "01U080", "StationName": "南山", "CountyName": "宜蘭縣", "TownName": "大同鄉", "StationLatitude": 24.43709, "StationLongitude": 121.379326, "StationAltitude": 1050.0, "DateTime": "2024-07-25 14:00:00", "Past1hr": 3.0, "Past10Min": 0.0, "Past3hr": 19.0, "Past6hr": 41.0, "Past12hr": 89.0, "Past24hr": 464.0, "NOW": 98.0, "Past2days": 659.0, "Past3days": 682.0, "easting": 288461.95225786843, "northing": 2703483.6508774613 }, "geometry": { "type": "Point", "coordinates": [ 288461.952257868426386, 2703483.650877461303025 ] } },
{ "type": "Feature", "properties": { "StationId": "01U230", "StationName": "大濁水", "CountyName": "宜蘭縣", "TownName": "南澳鄉", "StationLatitude": 24.329422, "StationLongitude": 121.73959, "StationAltitude": 48.0, "DateTime": "2024-07-25 14:00:00", "Past1hr": 1.0, "Past10Min": 0.0, "Past3hr": 13.0, "Past6hr": 59.0, "Past12hr": 133.0, "Past24hr": 498.0, "NOW": 148.0, "Past2days": 646.0, "Past3days": 690.0, "easting": 325055.67313435097, "northing": 2691706.0364798186 }, "geometry": { "type": "Point", "coordinates": [ 325055.673134350974578, 2691706.036479818634689 ] } },
{ "type": "Feature", "properties": { "StationId": "01U470", "StationName": "武塔", "CountyName": "宜蘭縣", "TownName": "南澳鄉", "StationLatitude": 24.449457, "StationLongitude": 121.77722, "StationAltitude": 32.0, "DateTime": "2024-07-25 14:00:00", "Past1hr": 1.0, "Past10Min": 0.0, "Past3hr": 6.0, "Past6hr": 45.0, "Past12hr": 99.0, "Past24hr": 561.0, "NOW": 135.0, "Past2days": 802.0, "Past3days": 870.0, "easting": 328800.14664292085, "northing": 2705021.8877130509 }, "geometry": { "type": "Point", "coordinates": [ 328800.146642920852173, 2705021.887713050935417 ] } },
{ "type": "Feature", "properties": { "StationId": "01U560", "StationName": "太平山(1)", "CountyName": "宜蘭縣", "TownName": "大同鄉", "StationLatitude": 24.494522, "StationLongitude": 121.53644, "StationAltitude": 1960.0, "DateTime": "2024-07-25 14:00:00", "Past1hr": 1.0, "Past10Min": 0.0, "Past3hr": 8.0, "Past6hr": 37.0, "Past12hr": 100.0, "Past24hr": 737.0, "NOW": 198.0, "Past2days": 1175.0, "Past3days": 1253.0, "easting": 304368.20340430108, "northing": 2709897.3241789043 }, "geometry": { "type": "Point", "coordinates": [ 304368.20340430107899, 2709897.324178904294968 ] } },
{ "type": "Feature", "properties": { "StationId": "01U780", "StationName": "四季", "CountyName": "宜蘭縣", "TownName": "大同鄉", "StationLatitude": 24.488419, "StationLongitude": 121.42613, "StationAltitude": 804.0, "DateTime": "2024-07-25 14:00:00", "Past1hr": 2.0, "Past10Min": 0.0, "Past3hr": 10.0, "Past6hr": 24.0, "Past12hr": 61.0, "Past24hr": 394.0, "NOW": 81.0, "Past2days": 601.0, "Past3days": 632.0, "easting": 293190.21324722609, "northing": 2709182.4406163529 }, "geometry": { "type": "Point", "coordinates": [ 293190.213247226085514, 2709182.440616352949291 ] } },
{ "type": "Feature", "properties": { "StationId": "O1T800", "StationName": "奇美國小", "CountyName": "花蓮縣", "TownName": "瑞穗鄉", "StationLatitude": 23.496927, "StationLongitude": 121.44593, "StationAltitude": 103.0, "DateTime": "2024-07-25 14:00:00", "Past1hr": 2.0, "Past10Min": 0.0, "Past3hr": 6.0, "Past6hr": 13.0, "Past12hr": 25.0, "Past24hr": 50.0, "NOW": 28.0, "Past2days": 91.0, "Past3days": 127.0, "easting": 295544.56884573249, "northing": 2599381.7095931387 }, "geometry": { "type": "Point", "coordinates": [ 295544.568845732486807, 2599381.70959313865751 ] } },
{ "type": "Feature", "properties": { "StationId": "O1T810", "StationName": "卓清國小", "CountyName": "花蓮縣", "TownName": "卓溪鄉", "StationLatitude": 23.278427, "StationLongitude": 121.27198, "StationAltitude": 203.0, "DateTime": "2024-07-25 14:00:00", "Past1hr": 2.0, "Past10Min": 0.0, "Past3hr": 13.0, "Past6hr": 31.0, "Past12hr": 46.0, "Past24hr": 56.0, "NOW": 54.0, "Past2days": 71.0, "Past3days": 90.0, "easting": 277823.85033680726, "northing": 2575140.805740064 }, "geometry": { "type": "Point", "coordinates": [ 277823.850336807256099, 2575140.805740064010024 ] } },
{ "type": "Feature", "properties": { "StationId": "O1T820", "StationName": "太平國小", "CountyName": "花蓮縣", "TownName": "卓溪鄉", "StationLatitude": 23.405748, "StationLongitude": 121.32013, "StationAltitude": 150.0, "DateTime": "2024-07-25 14:00:00", "Past1hr": 2.0, "Past10Min": 0.0, "Past3hr": 7.0, "Past6hr": 14.0, "Past12hr": 24.0, "Past24hr": 32.0, "NOW": 28.0, "Past2days": 57.0, "Past3days": 87.0, "easting": 282718.46693445614, "northing": 2589250.2568389177 }, "geometry": { "type": "Point", "coordinates": [ 282718.466934456140734, 2589250.256838917732239 ] } },
{ "type": "Feature", "properties": { "StationId": "88T830", "StationName": "和中", "CountyName": "花蓮縣", "TownName": "秀林鄉", "StationLatitude": 24.270832, "StationLongitude": 121.7418, "StationAltitude": 21.0, "DateTime": "2024-07-25 14:00:00", "Past1hr": 1.0, "Past10Min": 0.0, "Past3hr": 6.0, "Past6hr": 29.5, "Past12hr": 138.0, "Past24hr": 446.0, "NOW": 149.0, "Past2days": 543.5, "Past3days": 592.0, "easting": 325314.53435373661, "northing": 2685217.9386447594 }, "geometry": { "type": "Point", "coordinates": [ 325314.534353736613411, 2685217.938644759356976 ] } },
{ "type": "Feature", "properties": { "StationId": "01T240", "StationName": "苗圃", "CountyName": "花蓮縣", "TownName": "卓溪鄉", "StationLatitude": 23.417015, "StationLongitude": 121.27937, "StationAltitude": 940.0, "DateTime": "2024-07-25 14:00:00", "Past1hr": 3.0, "Past10Min": 0.0, "Past3hr": 11.0, "Past6hr": 21.0, "Past12hr": 37.0, "Past24hr": 46.0, "NOW": 41.0, "Past2days": 69.0, "Past3days": 93.0, "easting": 278550.20290074742, "northing": 2590489.3026686674 }, "geometry": { "type": "Point", "coordinates": [ 278550.202900747419335, 2590489.302668667398393 ] } },
{ "type": "Feature", "properties": { "StationId": "O1T840", "StationName": "花蓮", "CountyName": "花蓮縣", "TownName": "花蓮市", "StationLatitude": 23.972935, "StationLongitude": 121.60599, "StationAltitude": 18.0, "DateTime": "2024-07-25 14:00:00", "Past1hr": 1.0, "Past10Min": 0.0, "Past3hr": 4.0, "Past6hr": 13.0, "Past12hr": 47.0, "Past24hr": 244.0, "NOW": 48.0, "Past2days": 326.0, "Past3days": 364.0, "easting": 311668.0549651676, "northing": 2652158.2650294108 }, "geometry": { "type": "Point", "coordinates": [ 311668.054965167597402, 2652158.26502941083163 ] } },
{ "type": "Feature", "properties": { "StationId": "81U900", "StationName": "大溪國小", "CountyName": "宜蘭縣", "TownName": "頭城鎮", "StationLatitude": 24.935556, "StationLongitude": 121.88695, "StationAltitude": 12.0, "DateTime": "2024-07-25 14:00:00", "Past1hr": 1.0, "Past10Min": 0.0, "Past3hr": 2.5, "Past6hr": 12.5, "Past12hr": 28.5, "Past24hr": 105.0, "NOW": 31.5, "Past2days": 169.0, "Past3days": 204.0, "easting": 339577.69229646085, "northing": 2758931.987427 }, "geometry": { "type": "Point", "coordinates": [ 339577.692296460852958, 2758931.987427 ] } },
{ "type": "Feature", "properties": { "StationId": "81T850", "StationName": "溪口國小", "CountyName": "花蓮縣", "TownName": "壽豐鄉", "StationLatitude": 23.819721, "StationLongitude": 121.473335, "StationAltitude": 116.0, "DateTime": "2024-07-25 14:00:00", "Past1hr": 2.5, "Past10Min": 1.0, "Past3hr": 4.5, "Past6hr": 9.5, "Past12hr": 28.5, "Past24hr": 88.0, "NOW": 29.0, "Past2days": 136.0, "Past3days": 163.0, "easting": 298225.08115256124, "northing": 2635138.4250427973 }, "geometry": { "type": "Point", "coordinates": [ 298225.081152561237104, 2635138.425042797345668 ] } },
{ "type": "Feature", "properties": { "StationId": "81T860", "StationName": "山興分校", "CountyName": "花蓮縣", "TownName": "鳳林鎮", "StationLatitude": 23.727777, "StationLongitude": 121.4975, "StationAltitude": 98.0, "DateTime": "2024-07-25 14:00:00", "Past1hr": 3.5, "Past10Min": 0.5, "Past3hr": 5.5, "Past6hr": 11.5, "Past12hr": 32.5, "Past24hr": 210.0, "NOW": 37.5, "Past2days": 267.5, "Past3days": 304.0, "easting": 300722.7828800733, "northing": 2624964.3523717467 }, "geometry": { "type": "Point", "coordinates": [ 300722.782880073296838, 2624964.35237174667418 ] } },
{ "type": "Feature", "properties": { "StationId": "81T870", "StationName": "東興部落", "CountyName": "花蓮縣", "TownName": "豐濱鄉", "StationLatitude": 23.635204, "StationLongitude": 121.53089, "StationAltitude": 26.0, "DateTime": "2024-07-25 14:00:00", "Past1hr": 4.0, "Past10Min": 1.0, "Past3hr": 6.5, "Past6hr": 11.5, "Past12hr": 31.0, "Past24hr": 188.0, "NOW": 34.0, "Past2days": 244.5, "Past3days": 290.5, "easting": 304165.29141404608, "northing": 2614724.5747069735 }, "geometry": { "type": "Point", "coordinates": [ 304165.291414046077989, 2614724.574706973508 ] } },
{ "type": "Feature", "properties": { "StationId": "81T880", "StationName": "石梯坪", "CountyName": "花蓮縣", "TownName": "豐濱鄉", "StationLatitude": 23.483055, "StationLongitude": 121.51139, "StationAltitude": 13.0, "DateTime": "2024-07-25 14:00:00", "Past1hr": 3.0, "Past10Min": 0.5, "Past3hr": 6.5, "Past6hr": 12.0, "Past12hr": 22.5, "Past24hr": 70.5, "NOW": 25.5, "Past2days": 100.5, "Past3days": 145.5, "easting": 302235.83329322544, "northing": 2597867.7542085079 }, "geometry": { "type": "Point", "coordinates": [ 302235.833293225441594, 2597867.754208507947624 ] } },
{ "type": "Feature", "properties": { "StationId": "81T890", "StationName": "瑞北國小", "CountyName": "花蓮縣", "TownName": "瑞穗鄉", "StationLatitude": 23.525557, "StationLongitude": 121.376114, "StationAltitude": 103.0, "DateTime": "2024-07-25 14:00:00", "Past1hr": 3.0, "Past10Min": 0.0, "Past3hr": 7.0, "Past6hr": 13.0, "Past12hr": 24.0, "Past24hr": 44.5, "NOW": 25.5, "Past2days": 76.5, "Past3days": 103.5, "easting": 288405.60885532352, "northing": 2602531.8516158024 }, "geometry": { "type": "Point", "coordinates": [ 288405.608855323516764, 2602531.851615802384913 ] } },
{ "type": "Feature", "properties": { "StationId": "81T900", "StationName": "卓溪國小", "CountyName": "花蓮縣", "TownName": "卓溪鄉", "StationLatitude": 23.345833, "StationLongitude": 121.30333, "StationAltitude": 179.0, "DateTime": "2024-07-25 14:00:00", "Past1hr": 2.0, "Past10Min": 0.5, "Past3hr": 7.5, "Past6hr": 15.5, "Past12hr": 22.5, "Past24hr": 27.0, "NOW": 26.5, "Past2days": 40.5, "Past3days": 58.0, "easting": 281015.3703675968, "northing": 2582611.6012575235 }, "geometry": { "type": "Point", "coordinates": [ 281015.370367596799042, 2582611.601257523521781 ] } },
{ "type": "Feature", "properties": { "StationId": "81T910", "StationName": "東里國中", "CountyName": "花蓮縣", "TownName": "富里鄉", "StationLatitude": 23.263332, "StationLongitude": 121.303055, "StationAltitude": 173.0, "DateTime": "2024-07-25 14:00:00", "Past1hr": 4.5, "Past10Min": 0.5, "Past3hr": 15.0, "Past6hr": 37.5, "Past12hr": 55.0, "Past24hr": 64.0, "NOW": 61.0, "Past2days": 81.0, "Past3days": 106.0, "easting": 281006.36930659355, "northing": 2573475.5230714395 }, "geometry": { "type": "Point", "coordinates": [ 281006.3693065935513, 2573475.523071439471096 ] } },
{ "type": "Feature", "properties": { "StationId": "C0U720", "StationName": "南山", "CountyName": "宜蘭縣", "TownName": "大同鄉", "StationLatitude": 24.43742, "StationLongitude": 121.38167, "StationAltitude": 1260.0, "DateTime": "2024-07-25 14:00:00", "Past1hr": 3.0, "Past10Min": 0.0, "Past3hr": 16.0, "Past6hr": 35.0, "Past12hr": 76.5, "Past24hr": 339.0, "NOW": 87.0, "Past2days": 476.0, "Past3days": 498.0, "easting": 288699.52492497559, "northing": 2703520.8530437425 }, "geometry": { "type": "Point", "coordinates": [ 288699.524924975587055, 2703520.853043742477894 ] } },
{ "type": "Feature", "properties": { "StationId": "C0U870", "StationName": "大礁溪", "CountyName": "宜蘭縣", "TownName": "礁溪鄉", "StationLatitude": 24.791042, "StationLongitude": 121.67505, "StationAltitude": 474.0, "DateTime": "2024-07-25 14:00:00", "Past1hr": 1.5, "Past10Min": 0.0, "Past3hr": 4.0, "Past6hr": 8.0, "Past12hr": 39.5, "Past24hr": 207.0, "NOW": 58.5, "Past2days": 281.5, "Past3days": 341.0, "easting": 318255.3642974876, "northing": 2742801.9263796946 }, "geometry": { "type": "Point", "coordinates": [ 318255.364297487598378, 2742801.926379694603384 ] } },
{ "type": "Feature", "properties": { "StationId": "C1Z110", "StationName": "三棧", "CountyName": "花蓮縣", "TownName": "秀林鄉", "StationLatitude": 24.115568, "StationLongitude": 121.605, "StationAltitude": 680.0, "DateTime": "2024-07-25 14:00:00", "Past1hr": 1.5, "Past10Min": 0.5, "Past3hr": 9.5, "Past6hr": 41.0, "Past12hr": 103.0, "Past24hr": 326.5, "NOW": 108.5, "Past2days": 419.5, "Past3days": 450.0, "easting": 311499.34079010424, "northing": 2667954.7133407434 }, "geometry": { "type": "Point", "coordinates": [ 311499.340790104237385, 2667954.71334074344486 ] } },
{ "type": "Feature", "properties": { "StationId": "C1Z120", "StationName": "壽豐", "CountyName": "花蓮縣", "TownName": "壽豐鄉", "StationLatitude": 23.870853, "StationLongitude": 121.50808, "StationAltitude": 62.0, "DateTime": "2024-07-25 14:00:00", "Past1hr": 2.5, "Past10Min": 0.5, "Past3hr": 4.0, "Past6hr": 8.5, "Past12hr": 35.5, "Past24hr": 119.0, "NOW": 37.5, "Past2days": 183.5, "Past3days": 210.0, "easting": 301744.78711102903, "northing": 2640813.4295829749 }, "geometry": { "type": "Point", "coordinates": [ 301744.787111029028893, 2640813.429582974873483 ] } },
{ "type": "Feature", "properties": { "StationId": "C1Z130", "StationName": "銅門", "CountyName": "花蓮縣", "TownName": "秀林鄉", "StationLatitude": 23.965694, "StationLongitude": 121.49284, "StationAltitude": 187.0, "DateTime": "2024-07-25 14:00:00", "Past1hr": 1.0, "Past10Min": 0.5, "Past3hr": 3.5, "Past6hr": 11.5, "Past12hr": 56.0, "Past24hr": 135.5, "NOW": 62.0, "Past2days": 181.0, "Past3days": 200.0, "easting": 300156.03064092388, "northing": 2651311.4638205809 }, "geometry": { "type": "Point", "coordinates": [ 300156.030640923883766, 2651311.463820580858737 ] } },
{ "type": "Feature", "properties": { "StationId": "C1Z140", "StationName": "荖溪", "CountyName": "花蓮縣", "TownName": "秀林鄉", "StationLatitude": 23.890575, "StationLongitude": 121.45964, "StationAltitude": 950.0, "DateTime": "2024-07-25 14:00:00", "Past1hr": 3.5, "Past10Min": 1.0, "Past3hr": 7.5, "Past6hr": 17.0, "Past12hr": 59.0, "Past24hr": 130.5, "NOW": 63.0, "Past2days": 183.5, "Past3days": 211.5, "easting": 296804.3054098133, "northing": 2642980.7382859322 }, "geometry": { "type": "Point", "coordinates": [ 296804.305409813299775, 2642980.738285932224244 ] } },
{ "type": "Feature", "properties": { "StationId": "C0U860", "StationName": "頭城", "CountyName": "宜蘭縣", "TownName": "頭城鎮", "StationLatitude": 24.853233, "StationLongitude": 121.830795, "StationAltitude": 5.0, "DateTime": "2024-07-25 14:00:00", "Past1hr": 2.0, "Past10Min": 0.5, "Past3hr": 7.5, "Past6hr": 18.0, "Past12hr": 38.5, "Past24hr": 137.0, "NOW": 44.5, "Past2days": 191.5, "Past3days": 255.0, "easting": 333961.70286066114, "northing": 2749777.4024330899 }, "geometry": { "type": "Point", "coordinates": [ 333961.70286066114204, 2749777.402433089911938 ] } },
{ "type": "Feature", "properties": { "StationId": "C0Z150", "StationName": "吉安光華", "CountyName": "花蓮縣", "TownName": "吉安鄉", "StationLatitude": 23.930925, "StationLongitude": 121.59515, "StationAltitude": 27.0, "DateTime": "2024-07-25 14:00:00", "Past1hr": 1.5, "Past10Min": 0.5, "Past3hr": 5.0, "Past6hr": 15.0, "Past12hr": 45.0, "Past24hr": 247.0, "NOW": 45.5, "Past2days": 328.0, "Past3days": 359.5, "easting": 310584.52519954747, "northing": 2647500.9388999706 }, "geometry": { "type": "Point", "coordinates": [ 310584.525199547468219, 2647500.93889997061342 ] } },
{ "type": "Feature", "properties": { "StationId": "C0Z160", "StationName": "鳳林", "CountyName": "花蓮縣", "TownName": "鳳林鎮", "StationLatitude": 23.746115, "StationLongitude": 121.45341, "StationAltitude": 124.0, "DateTime": "2024-07-25 14:00:00", "Past1hr": 3.0, "Past10Min": 0.5, "Past3hr": 4.5, "Past6hr": 7.5, "Past12hr": 23.0, "Past24hr": 79.0, "NOW": 26.5, "Past2days": 120.5, "Past3days": 153.5, "easting": 296221.0354376852, "northing": 2626980.1966496198 }, "geometry": { "type": "Point", "coordinates": [ 296221.03543768520467, 2626980.196649619843811 ] } },
{ "type": "Feature", "properties": { "StationId": "C0Z170", "StationName": "卓溪", "CountyName": "花蓮縣", "TownName": "卓溪鄉", "StationLatitude": 23.344332, "StationLongitude": 121.30286, "StationAltitude": 216.0, "DateTime": "2024-07-25 14:00:00", "Past1hr": 2.5, "Past10Min": 0.5, "Past3hr": 10.0, "Past6hr": 22.0, "Past12hr": 31.0, "Past24hr": 38.0, "NOW": 37.0, "Past2days": 60.0, "Past3days": 82.0, "easting": 280967.66091889655, "northing": 2582445.2814928452 }, "geometry": { "type": "Point", "coordinates": [ 280967.660918896552175, 2582445.281492845155299 ] } },
{ "type": "Feature", "properties": { "StationId": "C0U910", "StationName": "冬山", "CountyName": "宜蘭縣", "TownName": "冬山鄉", "StationLatitude": 24.633724, "StationLongitude": 121.79369, "StationAltitude": 17.0, "DateTime": "2024-07-25 14:00:00", "Past1hr": 0.5, "Past10Min": 0.0, "Past3hr": 2.0, "Past6hr": 7.5, "Past12hr": 32.0, "Past24hr": 169.0, "NOW": 50.5, "Past2days": 226.5, "Past3days": 281.0, "easting": 330352.62440058327, "northing": 2725441.1521583796 }, "geometry": { "type": "Point", "coordinates": [ 330352.624400583270472, 2725441.152158379554749 ] } },
{ "type": "Feature", "properties": { "StationId": "C1U920", "StationName": "思源", "CountyName": "宜蘭縣", "TownName": "大同鄉", "StationLatitude": 24.393126, "StationLongitude": 121.34721, "StationAltitude": 2085.0, "DateTime": "2024-07-25 14:00:00", "Past1hr": 4.0, "Past10Min": 0.5, "Past3hr": 24.5, "Past6hr": 53.5, "Past12hr": 127.0, "Past24hr": 428.0, "NOW": 139.5, "Past2days": 659.5, "Past3days": 688.5, "easting": 285217.70331618749, "northing": 2698605.8974670023 }, "geometry": { "type": "Point", "coordinates": [ 285217.703316187486053, 2698605.897467002272606 ] } },
{ "type": "Feature", "properties": { "StationId": "C0Z180", "StationName": "新城", "CountyName": "花蓮縣", "TownName": "新城鄉", "StationLatitude": 24.039461, "StationLongitude": 121.60454, "StationAltitude": 34.0, "DateTime": "2024-07-25 14:00:00", "Past1hr": 1.5, "Past10Min": 0.5, "Past3hr": 5.5, "Past6hr": 21.0, "Past12hr": 58.5, "Past24hr": 199.0, "NOW": 61.0, "Past2days": 276.0, "Past3days": 303.5, "easting": 311488.8647901832, "northing": 2659525.4783402421 }, "geometry": { "type": "Point", "coordinates": [ 311488.864790183200967, 2659525.478340242058039 ] } },
{ "type": "Feature", "properties": { "StationId": "C0Z190", "StationName": "富世", "CountyName": "花蓮縣", "TownName": "秀林鄉", "StationLatitude": 24.147432, "StationLongitude": 121.6297, "StationAltitude": 62.0, "DateTime": "2024-07-25 14:00:00", "Past1hr": 1.5, "Past10Min": 0.0, "Past3hr": 14.0, "Past6hr": 69.0, "Past12hr": 150.5, "Past24hr": 407.0, "NOW": 156.5, "Past2days": 503.5, "Past3days": 532.5, "easting": 313994.3494120948, "northing": 2671494.8179613366 }, "geometry": { "type": "Point", "coordinates": [ 313994.349412094801664, 2671494.817961336579174 ] } },
{ "type": "Feature", "properties": { "StationId": "C0Z200", "StationName": "萬榮", "CountyName": "花蓮縣", "TownName": "鳳林鎮", "StationLatitude": 23.709219, "StationLongitude": 121.420105, "StationAltitude": 153.0, "DateTime": "2024-07-25 14:00:00", "Past1hr": 4.0, "Past10Min": 0.5, "Past3hr": 5.5, "Past6hr": 9.0, "Past12hr": 23.5, "Past24hr": 65.0, "NOW": 27.5, "Past2days": 106.0, "Past3days": 135.5, "easting": 292837.90560380084, "northing": 2622883.717638758 }, "geometry": { "type": "Point", "coordinates": [ 292837.905603800842073, 2622883.717638758011162 ] } },
{ "type": "Feature", "properties": { "StationId": "88T920", "StationName": "大興", "CountyName": "花蓮縣", "TownName": "光復鄉", "StationLatitude": 23.631945, "StationLongitude": 121.39778, "StationAltitude": 128.0, "DateTime": "2024-07-25 14:00:00", "Past1hr": 4.0, "Past10Min": 0.5, "Past3hr": 7.0, "Past6hr": 13.0, "Past12hr": 25.0, "Past24hr": 57.0, "NOW": 26.5, "Past2days": 95.0, "Past3days": 130.0, "easting": 290585.26343676745, "northing": 2614319.5343534281 }, "geometry": { "type": "Point", "coordinates": [ 290585.263436767447274, 2614319.534353428054601 ] } },
{ "type": "Feature", "properties": { "StationId": "C0U960", "StationName": "翠峰湖", "CountyName": "宜蘭縣", "TownName": "大同鄉", "StationLatitude": 24.510857, "StationLongitude": 121.60805, "StationAltitude": 1885.0, "DateTime": "2024-07-25 14:00:00", "Past1hr": 0.5, "Past10Min": 0.0, "Past3hr": 3.0, "Past6hr": 31.0, "Past12hr": 81.5, "Past24hr": 629.5, "NOW": 183.0, "Past2days": 996.5, "Past3days": 1083.0, "easting": 311618.08415673004, "northing": 2711736.6206362043 }, "geometry": { "type": "Point", "coordinates": [ 311618.084156730037648, 2711736.620636204257607 ] } },
{ "type": "Feature", "properties": { "StationId": "C0U970", "StationName": "大福", "CountyName": "宜蘭縣", "TownName": "壯圍鄉", "StationLatitude": 24.800636, "StationLongitude": 121.81389, "StationAltitude": 7.0, "DateTime": "2024-07-25 14:00:00", "Past1hr": 4.0, "Past10Min": 0.5, "Past3hr": 19.5, "Past6hr": 29.5, "Past12hr": 48.5, "Past24hr": 161.5, "NOW": 54.5, "Past2days": 225.5, "Past3days": 270.5, "easting": 332287.92710187676, "northing": 2743941.1084335539 }, "geometry": { "type": "Point", "coordinates": [ 332287.927101876761299, 2743941.108433553948998 ] } },
{ "type": "Feature", "properties": { "StationId": "C0U980", "StationName": "坪林石牌", "CountyName": "宜蘭縣", "TownName": "頭城鎮", "StationLatitude": 24.86478, "StationLongitude": 121.773964, "StationAltitude": 573.0, "DateTime": "2024-07-25 14:00:00", "Past1hr": 2.0, "Past10Min": 0.5, "Past3hr": 10.0, "Past6hr": 32.5, "Past12hr": 62.0, "Past24hr": 203.5, "NOW": 74.5, "Past2days": 300.0, "Past3days": 375.0, "easting": 328210.75582865824, "northing": 2751022.6119262553 }, "geometry": { "type": "Point", "coordinates": [ 328210.755828658235259, 2751022.611926255282015 ] } },
{ "type": "Feature", "properties": { "StationId": "C0UA10", "StationName": "鴛鴦湖", "CountyName": "宜蘭縣", "TownName": "大同鄉", "StationLatitude": 24.59027, "StationLongitude": 121.41223, "StationAltitude": 1711.0, "DateTime": "2024-07-25 14:00:00", "Past1hr": 1.0, "Past10Min": 0.0, "Past3hr": 5.5, "Past6hr": 18.0, "Past12hr": 74.0, "Past24hr": 402.5, "NOW": 132.5, "Past2days": 642.0, "Past3days": 694.0, "easting": 291747.66005443857, "northing": 2720458.8679580083 }, "geometry": { "type": "Point", "coordinates": [ 291747.660054438572843, 2720458.867958008311689 ] } },
{ "type": "Feature", "properties": { "StationId": "C0UA20", "StationName": "多加屯", "CountyName": "宜蘭縣", "TownName": "大同鄉", "StationLatitude": 24.368614, "StationLongitude": 121.37319, "StationAltitude": 2619.0, "DateTime": "2024-07-25 14:00:00", "Past1hr": 9.5, "Past10Min": 1.5, "Past3hr": 30.5, "Past6hr": 67.0, "Past12hr": 138.5, "Past24hr": 423.0, "NOW": 169.0, "Past2days": 677.0, "Past3days": 749.0, "easting": 287860.19251724542, "northing": 2695897.9316556342 }, "geometry": { "type": "Point", "coordinates": [ 287860.192517245421186, 2695897.931655634194613 ] } },
{ "type": "Feature", "properties": { "StationId": "C0Z210", "StationName": "瑞穗", "CountyName": "花蓮縣", "TownName": "瑞穗鄉", "StationLatitude": 23.5239, "StationLongitude": 121.39021, "StationAltitude": 126.0, "DateTime": "2024-07-25 14:00:00", "Past1hr": 3.5, "Past10Min": 0.0, "Past3hr": 7.5, "Past6hr": 13.0, "Past12hr": 24.0, "Past24hr": 47.0, "NOW": 26.5, "Past2days": 83.0, "Past3days": 111.5, "easting": 289845.48803157464, "northing": 2602352.1942264601 }, "geometry": { "type": "Point", "coordinates": [ 289845.488031574641354, 2602352.194226460065693 ] } },
{ "type": "Feature", "properties": { "StationId": "C1Z240", "StationName": "中平林道", "CountyName": "花蓮縣", "TownName": "卓溪鄉", "StationLatitude": 23.421146, "StationLongitude": 121.26763, "StationAltitude": 1163.0, "DateTime": "2024-07-25 14:00:00", "Past1hr": 3.5, "Past10Min": 0.5, "Past3hr": 10.0, "Past6hr": 17.0, "Past12hr": 32.5, "Past24hr": 39.0, "NOW": 36.0, "Past2days": 64.0, "Past3days": 84.0, "easting": 277349.57875864941, "northing": 2590944.4921409879 }, "geometry": { "type": "Point", "coordinates": [ 277349.578758649411611, 2590944.492140987887979 ] } },
{ "type": "Feature", "properties": { "StationId": "C0Z250", "StationName": "瑞穗林道", "CountyName": "花蓮縣", "TownName": "卓溪鄉", "StationLatitude": 23.492842, "StationLongitude": 121.306885, "StationAltitude": 1124.0, "DateTime": "2024-07-25 14:00:00", "Past1hr": 5.0, "Past10Min": 0.0, "Past3hr": 13.5, "Past6hr": 23.0, "Past12hr": 42.0, "Past24hr": 52.5, "NOW": 45.0, "Past2days": 77.0, "Past3days": 104.0, "easting": 281344.21266218886, "northing": 2598892.1348140617 }, "geometry": { "type": "Point", "coordinates": [ 281344.212662188860122, 2598892.134814061690122 ] } },
{ "type": "Feature", "properties": { "StationId": "C0Z280", "StationName": "德武", "CountyName": "花蓮縣", "TownName": "玉里鎮", "StationLatitude": 23.474264, "StationLongitude": 121.41071, "StationAltitude": 224.0, "DateTime": "2024-07-25 14:00:00", "Past1hr": 2.5, "Past10Min": 0.5, "Past3hr": 6.5, "Past6hr": 12.5, "Past12hr": 22.5, "Past24hr": 40.5, "NOW": 25.5, "Past2days": 79.0, "Past3days": 111.5, "easting": 291954.53848939086, "northing": 2596861.24801599 }, "geometry": { "type": "Point", "coordinates": [ 291954.538489390863106, 2596861.248015990015119 ] } },
{ "type": "Feature", "properties": { "StationId": "C0Z290", "StationName": "赤柯山", "CountyName": "花蓮縣", "TownName": "玉里鎮", "StationLatitude": 23.368929, "StationLongitude": 121.382935, "StationAltitude": 946.0, "DateTime": "2024-07-25 14:00:00", "Past1hr": 3.0, "Past10Min": 0.5, "Past3hr": 10.5, "Past6hr": 24.0, "Past12hr": 36.5, "Past24hr": 53.5, "NOW": 43.5, "Past2days": 96.0, "Past3days": 137.5, "easting": 289148.24731900118, "northing": 2585188.5621808902 }, "geometry": { "type": "Point", "coordinates": [ 289148.247319001180585, 2585188.56218089023605 ] } },
{ "type": "Feature", "properties": { "StationId": "C0Z300", "StationName": "東里", "CountyName": "花蓮縣", "TownName": "富里鄉", "StationLatitude": 23.268528, "StationLongitude": 121.305466, "StationAltitude": 182.0, "DateTime": "2024-07-25 14:00:00", "Past1hr": 3.5, "Past10Min": 0.5, "Past3hr": 14.0, "Past6hr": 35.0, "Past12hr": 50.0, "Past24hr": 59.5, "NOW": 57.0, "Past2days": 77.0, "Past3days": 101.0, "easting": 281251.83506215992, "northing": 2574051.4338380476 }, "geometry": { "type": "Point", "coordinates": [ 281251.835062159923837, 2574051.433838047552854 ] } },
{ "type": "Feature", "properties": { "StationId": "72T250", "StationName": "花蓮農改", "CountyName": "花蓮縣", "TownName": "吉安鄉", "StationLatitude": 23.975222, "StationLongitude": 121.56389, "StationAltitude": 36.0, "DateTime": "2024-07-25 14:00:00", "Past1hr": 1.5, "Past10Min": 0.5, "Past3hr": 5.0, "Past6hr": 12.0, "Past12hr": 47.5, "Past24hr": 189.0, "NOW": 50.0, "Past2days": 265.5, "Past3days": 297.5, "easting": 307382.67471606738, "northing": 2652393.7788917748 }, "geometry": { "type": "Point", "coordinates": [ 307382.674716067383997, 2652393.778891774825752 ] } },
{ "type": "Feature", "properties": { "StationId": "C0Z310", "StationName": "清水斷崖", "CountyName": "花蓮縣", "TownName": "秀林鄉", "StationLatitude": 24.218294, "StationLongitude": 121.68914, "StationAltitude": 59.0, "DateTime": "2024-07-25 14:00:00", "Past1hr": 1.5, "Past10Min": 0.0, "Past3hr": 6.5, "Past6hr": 23.0, "Past12hr": 102.0, "Past24hr": 418.0, "NOW": 109.0, "Past2days": 516.5, "Past3days": 543.5, "easting": 319996.55676194228, "northing": 2679371.5923827481 }, "geometry": { "type": "Point", "coordinates": [ 319996.556761942279991, 2679371.59238274814561 ] } },
{ "type": "Feature", "properties": { "StationId": "C0UA60", "StationName": "樟樹山", "CountyName": "宜蘭縣", "TownName": "南澳鄉", "StationLatitude": 24.413925, "StationLongitude": 121.78325, "StationAltitude": 566.0, "DateTime": "2024-07-25 14:00:00", "Past1hr": 1.5, "Past10Min": 0.5, "Past3hr": 8.0, "Past6hr": 42.5, "Past12hr": 96.5, "Past24hr": 395.5, "NOW": 121.5, "Past2days": 552.0, "Past3days": 631.0, "easting": 329433.78995092964, "northing": 2701089.799758696 }, "geometry": { "type": "Point", "coordinates": [ 329433.789950929640327, 2701089.799758695997298 ] } },
{ "type": "Feature", "properties": { "StationId": "C0UA70", "StationName": "桃源谷", "CountyName": "宜蘭縣", "TownName": "頭城鎮", "StationLatitude": 24.962606, "StationLongitude": 121.88888, "StationAltitude": 547.0, "DateTime": "2024-07-25 14:00:00", "Past1hr": 1.0, "Past10Min": 0.0, "Past3hr": 3.5, "Past6hr": 11.5, "Past12hr": 37.5, "Past24hr": 90.0, "NOW": 42.5, "Past2days": 152.0, "Past3days": 183.5, "easting": 339753.01379956055, "northing": 2761929.5814505471 }, "geometry": { "type": "Point", "coordinates": [ 339753.013799560547341, 2761929.581450547091663 ] } },
{ "type": "Feature", "properties": { "StationId": "C0UA30", "StationName": "白嶺", "CountyName": "宜蘭縣", "TownName": "大同鄉", "StationLatitude": 24.527819, "StationLongitude": 121.51903, "StationAltitude": 1397.0, "DateTime": "2024-07-25 14:00:00", "Past1hr": 0.5, "Past10Min": 0.0, "Past3hr": 2.5, "Past6hr": 14.5, "Past12hr": 43.0, "Past24hr": 415.5, "NOW": 110.5, "Past2days": 671.5, "Past3days": 708.5, "easting": 302589.80685198621, "northing": 2713578.4808461359 }, "geometry": { "type": "Point", "coordinates": [ 302589.806851986213587, 2713578.480846135877073 ] } },
{ "type": "Feature", "properties": { "StationId": "C0UA50", "StationName": "西帽山", "CountyName": "宜蘭縣", "TownName": "南澳鄉", "StationLatitude": 24.55536, "StationLongitude": 121.80263, "StationAltitude": 808.0, "DateTime": "2024-07-25 14:00:00", "Past1hr": 3.0, "Past10Min": 0.5, "Past3hr": 17.5, "Past6hr": 77.0, "Past12hr": 179.5, "Past24hr": 628.0, "NOW": 269.0, "Past2days": 784.5, "Past3days": 864.0, "easting": 331308.35158798128, "northing": 2716766.5793285072 }, "geometry": { "type": "Point", "coordinates": [ 331308.35158798127668, 2716766.579328507184982 ] } },
{ "type": "Feature", "properties": { "StationId": "C0Z320", "StationName": "清水林道", "CountyName": "花蓮縣", "TownName": "卓溪鄉", "StationLatitude": 23.27125, "StationLongitude": 121.18827, "StationAltitude": 646.0, "DateTime": "2024-07-25 14:00:00", "Past1hr": 3.5, "Past10Min": 0.5, "Past3hr": 17.0, "Past6hr": 44.0, "Past12hr": 68.0, "Past24hr": 84.0, "NOW": 78.5, "Past2days": 93.0, "Past3days": 120.5, "easting": 269261.23197312595, "northing": 2574332.4516836279 }, "geometry": { "type": "Point", "coordinates": [ 269261.231973125948571, 2574332.451683627907187 ] } },
{ "type": "Feature", "properties": { "StationId": "C0Z330", "StationName": "安通山", "CountyName": "花蓮縣", "TownName": "玉里鎮", "StationLatitude": 23.290728, "StationLongitude": 121.348526, "StationAltitude": 488.0, "DateTime": "2024-07-25 14:00:00", "Past1hr": 3.5, "Past10Min": 0.5, "Past3hr": 11.5, "Past6hr": 25.0, "Past12hr": 34.0, "Past24hr": 45.5, "NOW": 41.5, "Past2days": 70.5, "Past3days": 95.5, "easting": 285651.37354367436, "northing": 2576519.7561008707 }, "geometry": { "type": "Point", "coordinates": [ 285651.373543674359098, 2576519.756100870668888 ] } },
{ "type": "Feature", "properties": { "StationId": "C1TA00", "StationName": "太魯閣", "CountyName": "花蓮縣", "TownName": "秀林鄉", "StationLatitude": 24.157728, "StationLongitude": 121.6236, "StationAltitude": 94.0, "DateTime": "2024-07-25 14:00:00", "Past1hr": 1.5, "Past10Min": 0.0, "Past3hr": 10.0, "Past6hr": 53.0, "Past12hr": 114.5, "Past24hr": 320.5, "NOW": 118.5, "Past2days": 416.5, "Past3days": 443.0, "easting": 313369.33147290128, "northing": 2672632.3646715721 }, "geometry": { "type": "Point", "coordinates": [ 313369.331472901278175, 2672632.364671572111547 ] } },
{ "type": "Feature", "properties": { "StationId": "C0T9N0", "StationName": "富里", "CountyName": "花蓮縣", "TownName": "富里鄉", "StationLatitude": 23.171638, "StationLongitude": 121.249374, "StationAltitude": 261.0, "DateTime": "2024-07-25 14:00:00", "Past1hr": 3.5, "Past10Min": 0.5, "Past3hr": 12.0, "Past6hr": 38.0, "Past12hr": 58.0, "Past24hr": 71.5, "NOW": 68.5, "Past2days": 81.5, "Past3days": 103.5, "easting": 275531.51799044979, "northing": 2563311.17334793 }, "geometry": { "type": "Point", "coordinates": [ 275531.517990449792705, 2563311.173347929958254 ] } }
]
}
