{
"type": "FeatureCollection",
"name": "plumrain_rainfall",
"crs": { "type": "name", "properties": { "name": "urn:ogc:def:crs:EPSG::3826" } },
"features": [
{ "type": "Feature", "properties": { "StationId": "C1U670", "StationName": "寒溪", "CountyName": "宜蘭縣", "TownName": "冬山鄉", "StationLatitude": 24.634003, "StationLongitude": 121.71691, "StationAltitude": 105.0, "DateTime": "2024-05-28 14:00:00", "Past1hr": 1.0, "Past10Min": 0.0, "Past3hr": 1.5, "Past6hr": 8.5, "Past12hr": 9.5, "Past24hr": 14.0, "NOW": 9.5, "Past2days": 14.0, "Past3days": 14.5, "easting": 322579.02849883237, "northing": 2725429.3398506939 }, "geometry": { "type": "Point", "coordinates": [ 322579.028498832369223, 2725429.339850693941116 ] } },
{ "type": "Feature", "properties": { "StationId": "C0U650", "StationName": "玉蘭", "CountyName": "宜蘭縣", "TownName": "大同鄉", "StationLatitude": 24.675285, "StationLongitude": 121.58706, "StationAltitude": 442.0, "DateTime": "2024-05-28 14:00:00", "Past1hr": 1.0, "Past10Min": 0.0, "Past3hr": 3.0, "Past6hr": 6.5, "Past12hr": 7.0, "Past24hr": 12.0, "NOW": 7.0, "Past2days": 13.0, "Past3days": 13.5, "easting": 309413.30512642179, "northing": 2729939.3986093616 }, "geometry": { "type": "Point", "coordinates": [ 309413.30512642179383, 2729939.398609361611307 ] } },
{ "type": "Feature", "properties": { "StationId": "C1T970", "StationName": "大農", "CountyName": "花蓮縣", "TownName": "光復鄉", "StationLatitude": 23.615232, "StationLongitude": 121.41333, "StationAltitude": 183.0, "DateTime": "2024-05-28 14:00:00", "Past1hr": 0.5, "Past10Min": 0.5, "Past3hr": 4.5, "Past6hr": 11.0, "Past12hr": 11.0, "Past24hr": 11.0, "NOW": 11.0, "Past2days": 11.5, "Past3days": 11.5, "easting": 292177.19001027598, "northing": 2612473.1765423082 }, "geometry": { "type": "Point", "coordinates": [ 292177.190010275982786, 2612473.176542308181524 ] } },
{ "type": "Feature", "properties": { "StationId": "C1T990", "StationName": "高寮", "CountyName": "花蓮縣", "TownName": "玉里鎮", "StationLatitude": 23.39424, "StationLongitude": 121.35681, "StationAltitude": 128.0, "DateTime": "2024-05-28 14:00:00", "Past1hr": 0.5, "Past10Min": 0.0, "Past3hr": 8.5, "Past6hr": 13.5, "Past12hr": 13.5, "Past24hr": 13.5, "NOW": 13.5, "Past2days": 13.5, "Past3days": 14.0, "easting": 286470.48185823025, "northing": 2587984.657849492 }, "geometry": { "type": "Point", "coordinates": [ 286470.481858230254147, 2587984.657849492039531 ] } },
{ "type": "Feature", "properties": { "StationId": "C0Z070", "StationName": "舞鶴", "CountyName": "花蓮縣", "TownName": "瑞穗鄉", "StationLatitude": 23.468115, "StationLongitude": 121.37407, "StationAltitude": 247.0, "DateTime": "2024-05-28 14:00:00", "Past1hr": 0.5, "Past10Min": 0.5, "Past3hr": 5.5, "Past6hr": 7.0, "Past12hr": 7.0, "Past24hr": 7.0, "NOW": 7.0, "Past2days": 7.0, "Past3days": 8.0, "easting": 288213.44917666574, "northing": 2596170.0896884408 }, "geometry": { "type": "Point", "coordinates": [ 288213.449176665744744, 2596170.089688440784812 ] } },
{ "type": "Feature", "properties": { "StationId": "C0T9B0", "StationName": "水源", "CountyName": "花蓮縣", "TownName": "秀林鄉", "StationLatitude": 23.991861, "StationLongitude": 121.53717, "StationAltitude": 558.0, "DateTime": "2024-05-28 14:00:00", "Past1hr": 0.5, "Past10Min": 0.5, "Past3hr": 2.5, "Past6hr": 11.0, "Past12hr": 11.5, "Past24hr": 11.5, "NOW": 11.5, "Past2days": 12.0, "Past3days": 12.0, "easting": 304656.51150049054, "northing": 2654225.9344325159 }, "geometry": { "type": "Point", "coordinates": [ 304656.51150049053831, 2654225.934432515874505 ] } },
{ "type": "Feature", "properties": { "StationId": "C0T9G0", "StationName": "鳳林山", "CountyName": "花蓮縣", "TownName": "鳳林鎮", "StationLatitude": 23.73527, "StationLongitude": 121.42013, "StationAltitude": 605.0, "DateTime": "2024-05-28 14:00:00", "Past1hr": 1.0, "Past10Min": 0.0, "Past3hr": 5.5, "Past6hr": 10.0, "Past12hr": 10.0, "Past24hr": 10.0, "NOW": 10.0, "Past2days": 10.5, "Past3days": 10.5, "easting": 292831.94404698996, "northing": 2625768.7477817601 }, "geometry": { "type": "Point", "coordinates": [ 292831.944046989956405, 2625768.747781760059297 ] } },
{ "type": "Feature", "properties": { "StationId": "C0T9F0", "StationName": "水璉", "CountyName": "花蓮縣", "TownName": "壽豐鄉", "StationLatitude": 23.79713, "StationLongitude": 121.54251, "StationAltitude": 251.0, "DateTime": "2024-05-28 14:00:00", "Past1hr": 0.5, "Past10Min": 0.0, "Past3hr": 2.0, "Past6hr": 6.0, "Past12hr": 6.0, "Past24hr": 6.0, "NOW": 6.0, "Past2days": 6.0, "Past3days": 6.0, "easting": 305282.57731007307, "northing": 2632661.7561072707 }, "geometry": { "type": "Point", "coordinates": [ 305282.577310073073022, 2632661.756107270717621 ] } },
{ "type": "Feature", "properties": { "StationId": "C0U760", "StationName": "東澳", "CountyName": "宜蘭縣", "TownName": "南澳鄉", "StationLatitude": 24.521957, "StationLongitude": 121.833176, "StationAltitude": 22.0, "DateTime": "2024-05-28 14:00:00", "Past1hr": 0.5, "Past10Min": 0.0, "Past3hr": 2.0, "Past6hr": 9.5, "Past12hr": 10.5, "Past24hr": 15.5, "NOW": 10.5, "Past2days": 32.0, "Past3days": 34.5, "easting": 334425.22176514089, "northing": 2713085.1314773969 }, "geometry": { "type": "Point", "coordinates": [ 334425.221765140886419, 2713085.131477396935225 ] } },
{ "type": "Feature", "properties": { "StationId": "C1U501", "StationName": "牛鬥", "CountyName": "宜蘭縣", "TownName": "大同鄉", "StationLatitude": 24.637836, "StationLongitude": 121.573654, "StationAltitude": 280.0, "DateTime": "2024-05-28 14:00:00", "Past1hr": 1.0, "Past10Min": 0.5, "Past3hr": 1.5, "Past6hr": 5.5, "Past12hr": 5.5, "Past24hr": 7.5, "NOW": 5.5, "Past2days": 8.0, "Past3days": 8.5, "easting": 308073.84874061815, "northing": 2725785.7960780631 }, "geometry": { "type": "Point", "coordinates": [ 308073.848740618152078, 2725785.79607806308195 ] } },
{ "type": "Feature", "properties": { "StationId": "C1U840", "StationName": "東澳嶺", "CountyName": "宜蘭縣", "TownName": "南澳鄉", "StationLatitude": 24.5378, "StationLongitude": 121.8485, "StationAltitude": 750.0, "DateTime": "2024-05-28 14:00:00", "Past1hr": 4.0, "Past10Min": 0.5, "Past3hr": 6.5, "Past6hr": 17.5, "Past12hr": 18.5, "Past24hr": 24.5, "NOW": 18.5, "Past2days": 36.0, "Past3days": 39.5, "easting": 335967.27781998756, "northing": 2714849.4065941665 }, "geometry": { "type": "Point", "coordinates": [ 335967.277819987561088, 2714849.406594166532159 ] } },
{ "type": "Feature", "properties": { "StationId": "C0Z080", "StationName": "富源", "CountyName": "花蓮縣", "TownName": "光復鄉", "StationLatitude": 23.587643, "StationLongitude": 121.37823, "StationAltitude": 298.0, "DateTime": "2024-05-28 14:00:00", "Past1hr": 0.5, "Past10Min": 0.0, "Past3hr": 4.0, "Past6hr": 10.0, "Past12hr": 10.0, "Past24hr": 10.0, "NOW": 10.0, "Past2days": 10.0, "Past3days": 10.5, "easting": 288603.53938416508, "northing": 2609407.9744692729 }, "geometry": { "type": "Point", "coordinates": [ 288603.539384165080264, 2609407.974469272885472 ] } },
{ "type": "Feature", "properties": { "StationId": "C1S850", "StationName": "豐南", "CountyName": "花蓮縣", "TownName": "富里鄉", "StationLatitude": 23.122139, "StationLongitude": 121.26239, "StationAltitude": 489.0, "DateTime": "2024-05-28 14:00:00", "Past1hr": 0.5, "Past10Min": 0.0, "Past3hr": 9.0, "Past6hr": 14.0, "Past12hr": 14.0, "Past24hr": 14.0, "NOW": 14.0, "Past2days": 14.0, "Past3days": 14.5, "easting": 276874.00153964659, "northing": 2557832.2037927927 }, "geometry": { "type": "Point", "coordinates": [ 276874.001539646589663, 2557832.203792792744935 ] } },
{ "type": "Feature", "properties": { "StationId": "01U080", "StationName": "南山", "CountyName": "宜蘭縣", "TownName": "大同鄉", "StationLatitude": 24.43709, "StationLongitude": 121.379326, "StationAltitude": 1050.0, "DateTime": "2024-05-28 14:00:00", "Past1hr": 1.0, "Past10Min": 0.0, "Past3hr": 1.0, "Past6hr": 16.0, "Past12hr": 20.0, "Past24hr": 20.0, "NOW": 20.0, "Past2days": 22.0, "Past3days": 23.0, "easting": 288461.95225786843, "northing": 2703483.6508774613 }, "geometry": { "type": "Point", "coordinates": [ 288461.952257868426386, 2703483.650877461303025 ] } },
{ "type": "Feature", "properties": { "StationId": "81T9J0", "StationName": "鳳義坑", "CountyName": "花蓮縣", "TownName": "鳳林鎮", "StationLatitude": 23.740881, "StationLongitude": 121.42608, "StationAltitude": 304.0, "DateTime": "2024-05-28 14:00:00", "Past1hr": 0.5, "Past10Min": 0.5, "Past3hr": 5.0, "Past6hr": 10.0, "Past12hr": 10.0, "Past24hr": 10.0, "NOW": 10.0, "Past2days": 10.5, "Past3days": 10.5, "easting": 293436.68948129867, "northing": 2626391.9436565614 }, "geometry": { "type": "Point", "coordinates": [ 293436.689481298672035, 2626391.943656561430544 ] } },
{ "type": "Feature", "properties": { "StationId": "C1Z110", "StationName": "三棧", "CountyName": "花蓮縣", "TownName": "秀林鄉", "StationLatitude": 24.115568, "StationLongitude": 121.605, "StationAltitude": 680.0, "DateTime": "2024-05-28 14:00:00", "Past1hr": 0.5, "Past10Min": 0.0, "Past3hr": 0.5, "Past6hr": 7.0, "Past12hr": 7.5, "Past24hr": 13.0, "NOW": 7.5, "Past2days": 13.0, "Past3days": 15.0, "easting": 311499.34079010424, "northing": 2667954.7133407434 }, "geometry": { "type": "Point", "coordinates": [ 311499.340790104237385, 2667954.71334074344486 ] } },
{ "type": "Feature", "properties": { "StationId": "C1Z140", "StationName": "荖溪", "CountyName": "花蓮縣", "TownName": "秀林鄉", "StationLatitude": 23.890575, "StationLongitude": 121.45964, "StationAltitude": 950.0, "DateTime": "2024-05-28 14:00:00", "Past1hr": 1.0, "Past10Min": 0.5, "Past3hr": 3.0, "Past6hr": 7.5, "Past12hr": 7.5, "Past24hr": 7.5, "NOW": 7.5, "Past2days": 7.5, "Past3days": 7.5, "easting": 296804.3054098133, "northing": 2642980.7382859322 }, "geometry": { "type": "Point", "coordinates": [ 296804.305409813299775, 2642980.738285932224244 ] } },
{ "type": "Feature", "properties": { "StationId": "C1U920", "StationName": "思源", "CountyName": "宜蘭縣", "TownName": "大同鄉", "StationLatitude": 24.393126, "StationLongitude": 121.34721, "StationAltitude": 2085.0, "DateTime": "2024-05-28 14:00:00", "Past1hr": 1.5, "Past10Min": 0.0, "Past3hr": 1.5, "Past6hr": 17.5, "Past12hr": 26.0, "Past24hr": 30.0, "NOW": 26.5, "Past2days": 31.0, "Past3days": 31.5, "easting": 285217.70331618749, "northing": 2698605.8974670023 }, "geometry": { "type": "Point", "coordinates": [ 285217.703316187486053, 2698605.897467002272606 ] } },
{ "type": "Feature", "properties": { "StationId": "88U940", "StationName": "寒溪", "CountyName": "宜蘭縣", "TownName": "大同鄉", "StationLatitude": 24.609167, "StationLongitude": 121.68694, "StationAltitude": 175.0, "DateTime": "2024-05-28 14:00:00", "Past1hr": 1.5, "Past10Min": 0.5, "Past3hr": 2.0, "Past6hr": 8.5, "Past12hr": 9.0, "Past24hr": 13.5, "NOW": 9.0, "Past2days": 13.5, "Past3days": 14.5, "easting": 319558.54877688055, "northing": 2722662.9739139783 }, "geometry": { "type": "Point", "coordinates": [ 319558.548776880546939, 2722662.973913978319615 ] } },
{ "type": "Feature", "properties": { "StationId": "C0Z300", "StationName": "東里", "CountyName": "花蓮縣", "TownName": "富里鄉", "StationLatitude": 23.268528, "StationLongitude": 121.305466, "StationAltitude": 182.0, "DateTime": "2024-05-28 14:00:00", "Past1hr": 0.5, "Past10Min": 0.0, "Past3hr": 7.5, "Past6hr": 13.0, "Past12hr": 13.0, "Past24hr": 13.0, "NOW": 13.0, "Past2days": 13.0, "Past3days": 13.0, "easting": 281251.83506215992, "northing": 2574051.4338380476 }, "geometry": { "type": "Point", "coordinates": [ 281251.835062159923837, 2574051.433838047552854 ] } },
{ "type": "Feature", "properties": { "StationId": "C0UA70", "StationName": "桃源谷", "CountyName": "宜蘭縣", "TownName": "頭城鎮", "StationLatitude": 24.962606, "StationLongitude": 121.88888, "StationAltitude": 547.0, "DateTime": "2024-05-28 14:00:00", "Past1hr": 1.0, "Past10Min": 0.0, "Past3hr": 2.0, "Past6hr": 8.0, "Past12hr": 12.0, "Past24hr": 39.0, "NOW": 12.0, "Past2days": 40.5, "Past3days": 42.0, "easting": 339753.01379956055, "northing": 2761929.5814505471 }, "geometry": { "type": "Point", "coordinates": [ 339753.013799560547341, 2761929.581450547091663 ] } },
{ "type": "Feature", "properties": { "StationId": "C0UA30", "StationName": "白嶺", "CountyName": "宜蘭縣", "TownName": "大同鄉", "StationLatitude": 24.527819, "StationLongitude": 121.51903, "StationAltitude": 1397.0, "DateTime": "2024-05-28 14:00:00", "Past1hr": 0.5, "Past10Min": 0.0, "Past3hr": 0.5, "Past6hr": 4.0, "Past12hr": 4.5, "Past24hr": 7.0, "NOW": 4.5, "Past2days": 8.5, "Past3days": 9.0, "easting": 302589.80685198621, "northing": 2713578.4808461359 }, "geometry": { "type": "Point", "coordinates": [ 302589.806851986213587, 2713578.480846135877073 ] } },
{ "type": "Feature", "properties": { "StationId": "C0UA40", "StationName": "西德山", "CountyName": "宜蘭縣", "TownName": "南澳鄉", "StationLatitude": 24.560646, "StationLongitude": 121.75261, "StationAltitude": 1121.0, "DateTime": "2024-05-28 14:00:00", "Past1hr": 2.0, "Past10Min": 0.5, "Past3hr": 3.5, "Past6hr": 10.0, "Past12hr": 10.5, "Past24hr": 17.0, "NOW": 10.5, "Past2days": 17.0, "Past3days": 17.5, "easting": 326237.81011459517, "northing": 2717323.4825721909 }, "geometry": { "type": "Point", "coordinates": [ 326237.810114595165942, 2717323.482572190929204 ] } },
{ "type": "Feature", "properties": { "StationId": "C0UA50", "StationName": "西帽山", "CountyName": "宜蘭縣", "TownName": "南澳鄉", "StationLatitude": 24.55536, "StationLongitude": 121.80263, "StationAltitude": 808.0, "DateTime": "2024-05-28 14:00:00", "Past1hr": 2.5, "Past10Min": 0.5, "Past3hr": 8.0, "Past6hr": 18.0, "Past12hr": 18.5, "Past24hr": 24.5, "NOW": 18.5, "Past2days": 24.5, "Past3days": 27.5, "easting": 331308.35158798128, "northing": 2716766.5793285072 }, "geometry": { "type": "Point", "coordinates": [ 331308.35158798127668, 2716766.579328507184982 ] } },
{ "type": "Feature", "properties": { "StationId": "C0UA80", "StationName": "大溪漁港", "CountyName": "宜蘭縣", "TownName": "頭城鎮", "StationLatitude": 24.941803, "StationLongitude": 121.902954, "StationAltitude": 10.0, "DateTime": "2024-05-28 14:00:00", "Past1hr": 0.5, "Past10Min": 0.0, "Past3hr": 0.5, "Past6hr": 6.0, "Past12hr": 8.0, "Past24hr": 30.5, "NOW": 8.0, "Past2days": 30.5, "Past3days": 31.0, "easting": 341189.50698739022, "northing": 2759634.6119748186 }, "geometry": { "type": "Point", "coordinates": [ 341189.506987390224822, 2759634.611974818632007 ] } },
{ "type": "Feature", "properties": { "StationId": "C0UA90", "StationName": "石城", "CountyName": "宜蘭縣", "TownName": "頭城鎮", "StationLatitude": 24.980444, "StationLongitude": 121.95122, "StationAltitude": 5.0, "DateTime": "2024-05-28 14:00:00", "Past1hr": 0.5, "Past10Min": 0.0, "Past3hr": 2.0, "Past6hr": 7.5, "Past12hr": 13.0, "Past24hr": 38.5, "NOW": 13.0, "Past2days": 38.5, "Past3days": 38.5, "easting": 346034.19241237798, "northing": 2763948.1837805538 }, "geometry": { "type": "Point", "coordinates": [ 346034.192412377975415, 2763948.183780553750694 ] } }
]
}
